{"type":"FeatureCollection","name":"ATIY — Límite municipal derivado de circuitos electorales","features":[{"type":"Feature","geometry":{"type":"MultiPolygon","coordinates":[[[[-58.804752683698645,-34.088027017218636],[-58.7975721818542,-34.09546613221968],[-58.7912843483766,-34.100245644424135],[-58.784849686154786,-34.10844010307045],[-58.76944905441903,-34.12273075971332],[-58.76419796615587,-34.126050830767745],[-58.76402542874237,-34.127491428220104],[-58.7686108516145,-34.13126806550989],[-58.76352283622307,-34.146587539164365],[-58.76062775673661,-34.150354244573236],[-58.75675517057988,-34.152714107463915],[-58.75080964030189,-34.15366556101389],[-58.746723015633215,-34.15431016107915],[-58.747141686753054,-34.165555033599354],[-58.73521298552486,-34.168484671611886],[-58.727657809654076,-34.16900826103162],[-58.71956966317125,-34.16820099870285],[-58.711287152892176,-34.17015901379854],[-58.70155859851395,-34.17161487622152],[-58.69315761350584,-34.17205724484302],[-58.69122562028353,-34.17215383544557],[-58.692961522499104,-34.174894614881524],[-58.69364016339013,-34.182852215280946],[-58.69538967555236,-34.18683709028345],[-58.693534198108715,-34.194560340951064],[-58.69430401642963,-34.200184343653135],[-58.69824188200791,-34.207933501488554],[-58.70164451994614,-34.213143946481885],[-58.71054615336308,-34.218530487613144],[-58.70971771452352,-34.22661637301487],[-58.709552238434256,-34.231076726342955],[-58.711549087582675,-34.23822837629812],[-58.711969199022825,-34.247761028050014],[-58.71197596876324,-34.248031506675424],[-58.687472153444,-34.25473696893093],[-58.66967179551748,-34.259413672124666],[-58.649486076971435,-34.2650921990181],[-58.64849362376277,-34.2653699285367],[-58.644818266354534,-34.26639413992099],[-58.644251159267924,-34.26655032342307],[-58.63760546622317,-34.26793911904131],[-58.632097434137485,-34.26879036817881],[-58.63096555255957,-34.26896687179863],[-58.6252199780108,-34.26981971702454],[-58.61968860885997,-34.270846323928524],[-58.61327141531015,-34.272241304679554],[-58.60728750671089,-34.273641134097446],[-58.60152210682609,-34.27558444287933],[-58.59846610095973,-34.2765224695216],[-58.58855595486778,-34.27953525821451],[-58.58821751470997,-34.279639507073504],[-58.58155440410872,-34.28195077377318],[-58.57532669769335,-34.28480799658414],[-58.56820654954299,-34.288384843839744],[-58.56743827831972,-34.28885365390582],[-58.562861917523485,-34.291621773747906],[-58.558398315717,-34.29412975006057],[-58.55306546658514,-34.29663658607245],[-58.550831083445175,-34.29771024510998],[-58.548251039996686,-34.2986717736683],[-58.5475074976966,-34.29895158850206],[-58.54506217734375,-34.299653179401055],[-58.54218868958531,-34.29998934228946],[-58.5388827252129,-34.29958139139034],[-58.53580153263429,-34.2993652972412],[-58.533158097515965,-34.298965007677346],[-58.52786788914456,-34.29835362081411],[-58.523016535560316,-34.29811645592617],[-58.51992656732486,-34.29844746596664],[-58.51637533057934,-34.29968312092487],[-58.51599001511071,-34.29997581049299],[-58.5157487397783,-34.297656175312184],[-58.51499901757589,-34.296456981841054],[-58.51302188515114,-34.29588253802233],[-58.51146773792785,-34.2959532267778],[-58.50949980615901,-34.29547796468497],[-58.508186722717,-34.29481261089404],[-58.50631814979567,-34.29424848108961],[-58.50469088641668,-34.29293916223072],[-58.50306730573722,-34.290818737177894],[-58.502217430737375,-34.289158547747995],[-58.501366042715084,-34.28758851833079],[-58.500393591072985,-34.286107193669125],[-58.49963427132003,-34.285457749137045],[-58.498813258293104,-34.28522211599817],[-58.49842651757222,-34.2849920143199],[-58.498164986204635,-34.28443886048056],[-58.49812222919478,-34.28379837052609],[-58.497034661097615,-34.28268514056864],[-58.49573163687003,-34.281479051304636],[-58.494310391034446,-34.28081236005023],[-58.493389188090504,-34.28011580251419],[-58.49290462834454,-34.27928955042508],[-58.492239165386515,-34.27946146904037],[-58.49136233338981,-34.27931534030305],[-58.49086799485536,-34.27902978816248],[-58.490823657512976,-34.278479366008874],[-58.49122600420172,-34.27784445142837],[-58.492001673508604,-34.27758370012519],[-58.49333267694917,-34.27723069519401],[-58.49433203750954,-34.2766031772234],[-58.4956564246903,-34.2766197380845],[-58.49676278846295,-34.27667855999213],[-58.49721017028234,-34.27595401552328],[-58.49892770781431,-34.27584025444136],[-58.500086607031626,-34.275394989723736],[-58.50110506180929,-34.274307961997025],[-58.501726063949725,-34.27358559681179],[-58.50206320002658,-34.27294978626424],[-58.50201160623483,-34.27279594581785],[-58.50180588108173,-34.27216237710842],[-58.501533581230554,-34.27160919179553],[-58.500773586793095,-34.27100475851119],[-58.50046032239441,-34.27031582982259],[-58.50080073686981,-34.26949981597748],[-58.50109697628885,-34.26871936537872],[-58.50117189312806,-34.26757548853397],[-58.50062902575059,-34.26697386467024],[-58.49975642958138,-34.26660239534477],[-58.49941039136928,-34.26652601152994],[-58.498653489489854,-34.266354318889455],[-58.49738202535972,-34.26642859938363],[-58.49594421141345,-34.26669017802724],[-58.49466596674119,-34.26713392500134],[-58.493279334613945,-34.26756737990748],[-58.49194600148756,-34.26805554009884],[-58.490680245556135,-34.26840926633971],[-58.48911889814449,-34.26889457423162],[-58.48762346577236,-34.269335681747556],[-58.486352661144444,-34.26936496006683],[-58.48536573047241,-34.26930759433231],[-58.483874594937255,-34.26951436017226],[-58.482759010496444,-34.269960138165956],[-58.48186817518218,-34.27058896229972],[-58.48047872650906,-34.271166580321704],[-58.47925379714559,-34.27165611363058],[-58.47786265249566,-34.272323776585615],[-58.476363012259185,-34.27299012716741],[-58.475418604231905,-34.27357320504333],[-58.47414502631181,-34.27374665503158],[-58.472985290129294,-34.273633034420875],[-58.471761856446335,-34.27403240428781],[-58.47044425700765,-34.27424133275657],[-58.46724084081183,-34.2742554689729],[-58.46283766645315,-34.27396628185001],[-58.4602599976097,-34.273023799868085],[-58.45818679567094,-34.271808146074775],[-58.45621470838848,-34.27099935074864],[-58.45491397799338,-34.26970325587155],[-58.45432897607429,-34.26846117416521],[-58.45389580083808,-34.2678157605945],[-58.453696532254455,-34.2668489079785],[-58.453929889357866,-34.26597744748772],[-58.45394256700934,-34.26529261277599],[-58.45312266196888,-34.265012054071725],[-58.45245794457831,-34.26513889655415],[-58.45167788703818,-34.26563395938531],[-58.45123596879461,-34.26604303781916],[-58.450680715803315,-34.26612630641552],[-58.45013648105774,-34.265614792464866],[-58.44947513661804,-34.26556145034676],[-58.448702787775076,-34.26564191569374],[-58.447872718307444,-34.26590199275576],[-58.44704773127425,-34.265891751978316],[-58.4464465575337,-34.26552367876604],[-58.44561409101499,-34.265333035434935],[-58.445012848995574,-34.26555088995502],[-58.44466525657337,-34.26614141621183],[-58.44350371778424,-34.26612701455445],[-58.441799414346214,-34.266105781779665],[-58.44080293213819,-34.26655304149649],[-58.43919297364378,-34.26671316934919],[-58.43781516369651,-34.26665098285788],[-58.43688767898558,-34.26631497727898],[-58.436692027962195,-34.26516780647867],[-58.43658379094199,-34.264571602924086],[-58.43592159478261,-34.26456332802306],[-58.43542527431359,-34.264971731807464],[-58.434417968654515,-34.265418858204534],[-58.43297910134405,-34.26571637213772],[-58.43132909850487,-34.26569588489321],[-58.43028288047745,-34.26532226013024],[-58.42924068312391,-34.26530929651987],[-58.41898173624373,-34.26522491612057],[-58.41716980686542,-34.26460583105957],[-58.41569433329698,-34.26399128382413],[-58.4146647008583,-34.263337610435805],[-58.41341507210469,-34.26226640619456],[-58.4119064022488,-34.26055169135203],[-58.410988217855895,-34.25916940484705],[-58.41018826212388,-34.257824626220845],[-58.40878465153525,-34.25625554181404],[-58.40721075022921,-34.255089891664234],[-58.40581346758243,-34.25318730329305],[-58.40467886018747,-34.25175705490031],[-58.40388323450059,-34.25018705732715],[-58.403452041793564,-34.249451158205396],[-58.40264370583694,-34.24856608193979],[-58.40182763882306,-34.24809550893242],[-58.40139392137391,-34.24749481791751],[-58.4009050634376,-34.24693849269701],[-58.400704251944106,-34.246070425903824],[-58.40066282392864,-34.24538482104504],[-58.399845093106315,-34.2450043906714],[-58.398846876228816,-34.2449911527828],[-58.3980196800701,-34.245115354115086],[-58.397345692309344,-34.245755357807674],[-58.39761155360611,-34.24662425681973],[-58.398425881969324,-34.247184957394815],[-58.39846038503729,-34.24823998900242],[-58.39783489129034,-34.249187185380435],[-58.39677541000935,-34.24954266250335],[-58.39584222310789,-34.24953025284231],[-58.39518725989078,-34.249152010511374],[-58.39470099002268,-34.24846048993181],[-58.394101533027424,-34.24859669728286],[-58.39349385945164,-34.24858858061218],[-58.393221183453655,-34.248080220033636],[-58.393674711247655,-34.24762649493576],[-58.39413079187158,-34.24703765838511],[-58.39407597044931,-34.246487121592104],[-58.393480899425946,-34.24638901643602],[-58.3926471601905,-34.24628783326233],[-58.39144623471261,-34.24608258955859],[-58.39019051715569,-34.24533571316668],[-58.38970173687688,-34.24477940357893],[-58.38921906599015,-34.24389865085038],[-58.38885396730384,-34.243118555370074],[-58.38884371627638,-34.240783911178426],[-58.38979140399487,-34.24002128241119],[-58.39014766500654,-34.2389714041546],[-58.39093530682491,-34.238062405068625],[-58.391879608704656,-34.237480037538226],[-58.39283503484869,-34.23630290699603],[-58.39390455781884,-34.235406780225325],[-58.3940846446705,-34.23448967603478],[-58.39509224177372,-34.23399835608426],[-58.395769498414396,-34.23318705680846],[-58.39665088606221,-34.23305454822931],[-58.39769056771295,-34.233167524067895],[-58.398586241112504,-34.23285488827306],[-58.39897800816547,-34.23222012892758],[-58.40021369476514,-34.23113682619464],[-58.40083318448003,-34.23050508034822],[-58.401884110417605,-34.23001421251753],[-58.40304992491803,-34.229759281365936],[-58.40388737073624,-34.22907636592437],[-58.40389815254695,-34.22849964030209],[-58.403900045631175,-34.22782357851426],[-58.404029328211934,-34.22729345677425],[-58.40372179487718,-34.226333870597166],[-58.402902630787985,-34.2260436169558],[-58.40152238948666,-34.22616047152692],[-58.400148110394525,-34.22596194583691],[-58.39944502444116,-34.22526757174153],[-58.39846261165573,-34.22442521417805],[-58.397316511159744,-34.22363481464164],[-58.396120271663804,-34.223204308021785],[-58.394691760812506,-34.22300509227424],[-58.393476769353356,-34.22298893053511],[-58.39193473662845,-34.223058633479816],[-58.39088076907981,-34.22313478633572],[-58.39022165471148,-34.22299081278231],[-58.389677980888116,-34.222478815389195],[-58.388754631682744,-34.221961757979734],[-58.387769169492096,-34.22185857454132],[-58.38681755398859,-34.2222605625445],[-58.38593022263202,-34.22270845510899],[-58.38482282552894,-34.222738840611875],[-58.38382968801968,-34.22304115783351],[-58.38277915341914,-34.22293704662552],[-58.38230316608033,-34.222290786878105],[-58.38186350551782,-34.22201449378698],[-58.38188019144854,-34.221140391536785],[-58.38249890857756,-34.22055372894823],[-58.38322790319691,-34.21987833406951],[-58.38351828128608,-34.21887269466633],[-58.38377043542305,-34.2175960160816],[-58.383677690985536,-34.21676557786813],[-58.38358011893365,-34.21561954422352],[-58.38365702868969,-34.21443067909046],[-58.38422918473225,-34.21343772153884],[-58.385409897205115,-34.212398793468594],[-58.386037338358264,-34.211352576417134],[-58.386546653968814,-34.21080948036262],[-58.386557186191325,-34.21025972133231],[-58.38612293531896,-34.20970416171962],[-58.38541406826707,-34.20932520434366],[-58.384255252093546,-34.209219646336635],[-58.38344363591453,-34.209109740695695],[-58.382713056930164,-34.20930734421903],[-58.38239696154482,-34.20995222196103],[-58.38171575274301,-34.21040286325541],[-58.38086776149022,-34.210490749217286],[-58.38007306928675,-34.21063346876914],[-58.37904664430593,-34.21041251748443],[-58.37788790971832,-34.210297974392724],[-58.37721369221482,-34.21094704896606],[-58.376479225194295,-34.21134294357939],[-58.37580963563508,-34.21118080286595],[-58.37533126757117,-34.2106696769063],[-58.37546795194428,-34.20976111958964],[-58.37602591764627,-34.209516142821094],[-58.37663631962482,-34.209370973745514],[-58.3772998409181,-34.209280626699375],[-58.37730946895376,-34.20877602774542],[-58.378054784306606,-34.20838026908021],[-58.378493116867425,-34.20758386791682],[-58.37807788455819,-34.20717277125396],[-58.37778487957247,-34.20660996718665],[-58.37785147893417,-34.20596189192019],[-58.37786409184622,-34.2053040588491],[-58.378535664784145,-34.20535801493283],[-58.3790148811039,-34.205824072867244],[-58.37935649016926,-34.206684895958254],[-58.379831960729604,-34.20734926131316],[-58.38032109232605,-34.207301660987504],[-58.380332631772845,-34.206697864424704],[-58.380348108765304,-34.20588687623004],[-58.38066333726324,-34.20528715376257],[-58.38126669663159,-34.20550239855201],[-58.381560778156214,-34.20601107572985],[-58.38241449361669,-34.205616787725155],[-58.3828355903794,-34.20572149826684],[-58.38284422669283,-34.205270939966006],[-58.382188432403225,-34.20495579675651],[-58.381286011264955,-34.2044931091226],[-58.3812393207811,-34.2035280462587],[-58.38065021403827,-34.20256483322438],[-58.38000897719918,-34.201492666003595],[-58.3788667285125,-34.200522099032014],[-58.37791414450259,-34.199851452838075],[-58.37657417216815,-34.199581343024256],[-58.37518783425027,-34.19946373176585],[-58.374623167673974,-34.20006016506321],[-58.373220326212675,-34.200239910970126],[-58.371657433318695,-34.19971445259203],[-58.3698575572416,-34.19853677529237],[-58.367938600778025,-34.19734860239522],[-58.36771052733802,-34.19623695739659],[-58.366575560050684,-34.195464778792136],[-58.36604104605699,-34.19449323597587],[-58.36526024518327,-34.194482881369034],[-58.365018628464,-34.19407402993746],[-58.36576176323799,-34.193227583352304],[-58.36656613640243,-34.19258026319022],[-58.36725691766482,-34.191634013262636],[-58.36782158543785,-34.19047873504328],[-58.36778770299442,-34.18942363405959],[-58.36694181346174,-34.18885360655954],[-58.3662132905015,-34.188943143387206],[-58.36594933380894,-34.190255627898914],[-58.36512651145196,-34.191858159106005],[-58.363945567041036,-34.192906054304814],[-58.362405003081236,-34.194039399642485],[-58.36016095093996,-34.19396460484464],[-58.3589097888841,-34.19303759936314],[-58.357818274420325,-34.19282483400081],[-58.35649028799228,-34.19250084884253],[-58.35607414215298,-34.19158489703106],[-58.3558540943225,-34.190626563739904],[-58.35605514279613,-34.18977292858778],[-58.356311335575825,-34.18886603021201],[-58.35705667583867,-34.1879114313984],[-58.358352956592725,-34.18707233956301],[-58.35892261240658,-34.185664751398214],[-58.360052073520244,-34.183913065399636],[-58.361086134075045,-34.183728483402845],[-58.3631635823041,-34.180069406125334],[-58.36318022398658,-34.17921340129451],[-58.36399025677124,-34.178268667596114],[-58.365209532797664,-34.178032468777815],[-58.36832576943084,-34.17392742105161],[-58.36905494351645,-34.173792879825875],[-58.36985049516653,-34.173596068372625],[-58.37005129782367,-34.17274248704695],[-58.37036361282768,-34.17229590975591],[-58.37072735797695,-34.1719942797124],[-58.371647797163995,-34.17150166951041],[-58.37226852266238,-34.170806802702145],[-58.37278769431201,-34.16919128229982],[-58.374036058852056,-34.167441121146965],[-58.37516220181854,-34.165842577556134],[-58.3759148046853,-34.164491487509565],[-58.37630282557043,-34.163487097831315],[-58.375902468772296,-34.16231904118398],[-58.37578514204788,-34.16221833004073],[-58.375060704220076,-34.161550770291726],[-58.37342674361477,-34.16137589170747],[-58.37363138222113,-34.16032400880651],[-58.37336119357844,-34.158598863922734],[-58.37247397766679,-34.15737937367724],[-58.37231514281255,-34.15606122553037],[-58.37089770105013,-34.15423081477419],[-58.36896612449208,-34.153195777630046],[-58.36888219508529,-34.1513738962562],[-58.36958368445819,-34.1498688965763],[-58.37071761981423,-34.147864863581894],[-58.37061210465953,-34.14660155318197],[-58.37138534693467,-34.144746020639865],[-58.368468536806496,-34.14142653602902],[-58.36868822660882,-34.13960870238068],[-58.36886921399042,-34.13643835887115],[-58.368661156500494,-34.13486730557018],[-58.36801221597937,-34.13365086379294],[-58.36797367882475,-34.12597060713484],[-58.36793388073343,-34.125212903468864],[-58.36714761729492,-34.12495010556748],[-58.366432040821984,-34.124390819494835],[-58.36522231430569,-34.12416756074653],[-58.36436042269856,-34.124462658704466],[-58.363397973229496,-34.124350819608736],[-58.36261276980695,-34.124033985916235],[-58.36193801284776,-34.12417835992539],[-58.361288508816045,-34.123565862967205],[-58.360813394287334,-34.12290160937621],[-58.360332470662335,-34.12254373369255],[-58.36028711370097,-34.12208344509403],[-58.361322149231285,-34.12179960219136],[-58.3623438329393,-34.12221872897524],[-58.36379879206148,-34.122084670081186],[-58.3642999873538,-34.12137916025855],[-58.3640827000855,-34.12026760468849],[-58.36367447925912,-34.11950506957712],[-58.36277202393662,-34.119087545738545],[-58.36260230561076,-34.11832821338621],[-58.36285994585377,-34.11732206387144],[-58.36372740101157,-34.116729551791195],[-58.3642167508153,-34.11607803311347],[-58.36502300501079,-34.1152864021525],[-58.36608303829767,-34.113686905618415],[-58.3664096014696,-34.11247438466502],[-58.36727412759639,-34.11203509591152],[-58.36783022936669,-34.111285188459476],[-58.36772462303445,-34.11057173566087],[-58.36677439184767,-34.10925222905064],[-58.365954428521846,-34.10792539558901],[-58.36513534207583,-34.10655359372272],[-58.36532130450426,-34.105897969771405],[-58.365534401496305,-34.10438645949859],[-58.364828640217404,-34.10332263184477],[-58.36438079717114,-34.10124350307833],[-58.36374996500858,-34.09966686251168],[-58.3631741349416,-34.09804584362341],[-58.362898777650244,-34.09658197425103],[-58.36263039309248,-34.09475769973853],[-58.36242073208166,-34.0926907471191],[-58.361846130019565,-34.09101571399564],[-58.361651469529214,-34.08874164644269],[-58.362547657174964,-34.08607634912429],[-58.36253520337181,-34.08390396698285],[-58.36294196777927,-34.081340352378085],[-58.36340611345151,-34.07917422760004],[-58.362730847911045,-34.07654234869235],[-58.36228530263759,-34.074364185236135],[-58.36197561941593,-34.071881377992554],[-58.362430894304026,-34.070174761393545],[-58.36319826341209,-34.068012526786724],[-58.36390854141058,-34.06600283934638],[-58.36459044569878,-34.06490314121216],[-58.364434729709224,-34.06399066356928],[-58.362982590202996,-34.063466892376724],[-58.36179797198673,-34.061991058793424],[-58.36146598872564,-34.06067072614521],[-58.361113291567484,-34.05986389330067],[-58.36138181321957,-34.058299051934895],[-58.36237391073737,-34.057401660375604],[-58.36257347876693,-34.05660209738731],[-58.361911011690246,-34.05613374784927],[-58.36219603436177,-34.05427164633319],[-58.363001029014605,-34.052966254002364],[-58.36338378199717,-34.0522140511291],[-58.36346719352803,-34.051259769348874],[-58.364575297092124,-34.04995833506292],[-58.36655042923702,-34.04862319096476],[-58.3689368859238,-34.04729343868249],[-58.37077621094283,-34.04625394846099],[-58.37024355982577,-34.04579629855441],[-58.36828994990072,-34.046023048465784],[-58.366526334059145,-34.046504646820246],[-58.36624462544598,-34.04539226996927],[-58.36461274702567,-34.0452176465044],[-58.363501698273765,-34.046113400083506],[-58.362153467412156,-34.04695204632287],[-58.36043704935719,-34.047785817679824],[-58.35872644978687,-34.048322201661335],[-58.35690941745742,-34.048199215803336],[-58.35549807488782,-34.048937843637404],[-58.35483761110064,-34.04892914344921],[-58.35388279077026,-34.047907144355605],[-58.35305594226433,-34.04698586681834],[-58.35279011824965,-34.04506251967724],[-58.35414527026425,-34.0438724712496],[-58.3557583846773,-34.04222612239798],[-58.35836236790346,-34.03917765257718],[-58.35935825747405,-34.037523219619544],[-58.35980976148085,-34.03657371496203],[-58.36160069964724,-34.034677330332265],[-58.36162902611437,-34.03321751035079],[-58.36249699024742,-34.032012004340736],[-58.36282944394357,-34.030502098193026],[-58.365234234557526,-34.02876694383446],[-58.36592175804892,-34.027369818084466],[-58.36777060146312,-34.02582570161884],[-58.36960666139876,-34.024939366866015],[-58.371102002623516,-34.02319231360535],[-58.3726386560433,-34.022103717174396],[-58.373219929952015,-34.02003822047462],[-58.373639504496545,-34.015431848910524],[-58.37457455546009,-34.01137053100303],[-58.375384187424324,-34.00691755519975],[-58.37808296063844,-34.00462359796776],[-58.38916925839108,-34.00376058479366],[-58.397447343934466,-34.00325580625034],[-58.40992477434271,-34.00389676548089],[-58.43091674657925,-34.003468022726985],[-58.44513256301943,-34.00129151036249],[-58.44544768526061,-34.00122330266134],[-58.44859974920206,-34.00109959139303],[-58.45248838307789,-34.00094880227594],[-58.455603447470054,-34.00047309717454],[-58.45855761300093,-34.00051824973329],[-58.46153514253861,-34.000464439181165],[-58.46433478593978,-34.000669981967484],[-58.46695100183961,-34.00084611664919],[-58.46985729068098,-34.00114304942167],[-58.47294728703185,-34.00146033113542],[-58.47593423242686,-34.001478728521484],[-58.47873630015928,-34.00216205286356],[-58.47948821457842,-34.00248672468911],[-58.48115346143048,-34.00319217257782],[-58.482802685868656,-34.004194870403644],[-58.48301911667707,-34.004197452479666],[-58.48542061771397,-34.00427189018852],[-58.48754722629831,-34.005830329714826],[-58.48986576043261,-34.006318358653004],[-58.492881980933674,-34.00776142677267],[-58.496072422873375,-34.0085306379237],[-58.498659752468,-34.01037409476185],[-58.503736413990794,-34.01160799552812],[-58.506369472274955,-34.012694934718965],[-58.50929071395348,-34.01401969718359],[-58.51250484345586,-34.01531192726124],[-58.51311959949108,-34.01544565091166],[-58.51645160516546,-34.01618054503821],[-58.519469106808785,-34.017587651802636],[-58.519544535793756,-34.01760657288388],[-58.52282173824012,-34.01838584945148],[-58.52624463498369,-34.01887842896691],[-58.52955228196495,-34.01978426109986],[-58.532814329550774,-34.020824743702526],[-58.53613418278228,-34.021649630358255],[-58.53957999462815,-34.02207037462449],[-58.5429918645022,-34.02258090692182],[-58.54624326795408,-34.023621304048966],[-58.54962008759057,-34.0243191614973],[-58.55299658635262,-34.02505165409122],[-58.556192897756915,-34.02618770784539],[-58.559378426317835,-34.02732365799263],[-58.562873406539865,-34.02746263020486],[-58.56649794410511,-34.02699012204582],[-58.57153483027506,-34.02686725537099],[-58.57421756500794,-34.0270149533659],[-58.57787450110907,-34.02717378582868],[-58.580772356843134,-34.02868508108212],[-58.5830606616161,-34.02974780610996],[-58.58662137592339,-34.03112242767577],[-58.589964413436896,-34.03192665863359],[-58.593261936181875,-34.03286567395631],[-58.59613709563925,-34.034457811246675],[-58.59861586310365,-34.035153122714064],[-58.60158102051797,-34.03589900314149],[-58.60471121229434,-34.036493521446204],[-58.608992845344524,-34.03685776659418],[-58.610468416189406,-34.037334340442406],[-58.612051530086184,-34.03784816920533],[-58.61645502311165,-34.038051606151804],[-58.61973514894746,-34.038088970409824],[-58.623773717340185,-34.03808989710603],[-58.626846514571376,-34.038224020982845],[-58.629745274924936,-34.03840127792679],[-58.632999311406344,-34.03804169344749],[-58.635644951973774,-34.038468462629815],[-58.63871475875971,-34.03878291630441],[-58.64141589582803,-34.03846213499509],[-58.64393038194179,-34.03829240766409],[-58.64668285810534,-34.038143465428476],[-58.6501637845398,-34.03779552504039],[-58.653503122584716,-34.03684970825702],[-58.65572116889658,-34.034944176501455],[-58.65822247819991,-34.03292437671201],[-58.6610423219908,-34.03129554165371],[-58.66366412375151,-34.02980875748473],[-58.66768127430573,-34.028399796730945],[-58.671080185718615,-34.027056421742664],[-58.67418006514252,-34.02543045180961],[-58.67500762849295,-34.025123642098414],[-58.67545941820205,-34.02531770538753],[-58.68098927524476,-34.027629484894916],[-58.70208904326083,-34.037046400562616],[-58.75789360903312,-34.061953445938904],[-58.79412269215525,-34.07821521703284],[-58.79474695192501,-34.078500725781595],[-58.799655806944784,-34.07917945812034],[-58.79969917346727,-34.079179852601115],[-58.800218034393914,-34.07925705062756],[-58.80456976935496,-34.08103007987597],[-58.804698399821646,-34.08595037400517],[-58.804752683698645,-34.088027017218636]]],[[[-58.603227772056606,-34.47894721000493],[-58.602543675938755,-34.479562896511],[-58.60134334007492,-34.48053758563526],[-58.60031792653531,-34.48135900237458],[-58.59928671725572,-34.48218506184354],[-58.59774816614642,-34.483468821049385],[-58.59768266912415,-34.48352347143103],[-58.59762008476467,-34.48357271293214],[-58.59585090948603,-34.4849647036336],[-58.59583426289177,-34.48497780120777],[-58.59399844214462,-34.48642222869918],[-58.58902826314864,-34.48379647375791],[-58.58761407874082,-34.48304935746699],[-58.5862460279046,-34.482326613628985],[-58.584809798542146,-34.48009247906517],[-58.582974616579016,-34.47913499282353],[-58.58300824486312,-34.4791085706003],[-58.58296252194787,-34.47908471516626],[-58.58291541928462,-34.47912264188715],[-58.58282131510571,-34.47919841388562],[-58.58094586378383,-34.47828567401814],[-58.57896051687458,-34.47732248591365],[-58.578783200941764,-34.47709625524075],[-58.577874972985676,-34.4759374816416],[-58.57786078190833,-34.475919375784294],[-58.575400907043516,-34.4755409334974],[-58.57490287406805,-34.47546431303964],[-58.57484869145732,-34.47543688561386],[-58.573470958421844,-34.47473947236513],[-58.57112103288002,-34.47354993189235],[-58.56980869945424,-34.47288562415324],[-58.56976831797633,-34.47286450965499],[-58.56930485629551,-34.47262217674999],[-58.56922217347539,-34.47257894390286],[-58.56905242463047,-34.47249018633689],[-58.56868563540255,-34.472319711849345],[-58.56846385618172,-34.47221663439739],[-58.56838604016997,-34.47217830522353],[-58.56812904995762,-34.472051721731184],[-58.56775153831011,-34.47186577401626],[-58.56685871061641,-34.47140851580213],[-58.56683859281478,-34.47144226071616],[-58.5668377661869,-34.47144187787141],[-58.56672230940025,-34.47138840517221],[-58.56436671029098,-34.47029743212278],[-58.56137429333389,-34.46885167536311],[-58.55735093286445,-34.46693664217526],[-58.55376821685557,-34.46522797335125],[-58.54951058178435,-34.46321800096839],[-58.54706551831631,-34.46207303721359],[-58.546927372229604,-34.46200834676109],[-58.54574960630804,-34.46145682762489],[-58.54275847861081,-34.45999845663769],[-58.54007407540041,-34.45873059294873],[-58.53910816836235,-34.45827316176659],[-58.53697643882157,-34.45724905295352],[-58.536303676803676,-34.45691463473932],[-58.53615539575831,-34.45684092682914],[-58.53615510151464,-34.45684078056576],[-58.53615510900761,-34.456840778593396],[-58.53487518339245,-34.456179121172845],[-58.53486037454103,-34.456171563216],[-58.5346055146143,-34.45604082027587],[-58.533688706334786,-34.45557033236137],[-58.53279354739403,-34.455109080577046],[-58.53188784297054,-34.45462974620726],[-58.53158564269477,-34.45448199524322],[-58.530959968491686,-34.454168203015264],[-58.53066895387834,-34.45401151868772],[-58.530043285876516,-34.453697727664114],[-58.52913725441703,-34.45323635476899],[-58.52914842861442,-34.45321852132248],[-58.52756438391458,-34.452325550130794],[-58.52591355595484,-34.451521981155615],[-58.52526610414295,-34.45120794038036],[-58.52412239821326,-34.450653650462414],[-58.524090037805514,-34.45063522112855],[-58.52380958182057,-34.45049680384726],[-58.523507504531466,-34.45034897397265],[-58.523475136339734,-34.45033063408094],[-58.52067035604242,-34.448936567473645],[-58.520508633169555,-34.44885359505521],[-58.51827597701262,-34.4477277076568],[-58.51795245896269,-34.44756166966582],[-58.51781211011106,-34.44749690424423],[-58.51697100392004,-34.44706342907152],[-58.516658398235464,-34.44689751992998],[-58.517346350558064,-34.44676135889658],[-58.51782205104085,-34.44631630453244],[-58.51794969037301,-34.44586712610995],[-58.51801115126232,-34.445471247323106],[-58.51806551104301,-34.44547187601484],[-58.5191313997494,-34.44550247214768],[-58.52081986441957,-34.44539614130869],[-58.5225114075038,-34.445118581630396],[-58.5237148953135,-34.444745187565324],[-58.52506271401349,-34.44421118143284],[-58.526619382925034,-34.44355349740627],[-58.52808958475058,-34.442858700408884],[-58.52911065760495,-34.44233894771936],[-58.52996711467308,-34.44189838402878],[-58.53074658605611,-34.44150191993428],[-58.531428783917384,-34.441068313704065],[-58.532121704126766,-34.44064381191417],[-58.53328722016099,-34.43994546766058],[-58.53445361800935,-34.4392020502856],[-58.53521536967755,-34.43857105334633],[-58.535614401397794,-34.43815212329745],[-58.536299342670645,-34.43755624750313],[-58.53659858760656,-34.43724429452573],[-58.53782186087326,-34.435726351301625],[-58.538242854242014,-34.43523707418774],[-58.53851336481713,-34.43492268768361],[-58.538965690117635,-34.43439680761363],[-58.53986425776025,-34.433406877237495],[-58.540141031916804,-34.43313076113447],[-58.54036220334528,-34.43292603312393],[-58.54093549505997,-34.432491145115385],[-58.54190390220252,-34.43186252356579],[-58.54251910177685,-34.43151819867966],[-58.54340674828549,-34.431150081939926],[-58.54528551722764,-34.43071249649502],[-58.54740561457207,-34.430160490962535],[-58.54992361133516,-34.429243671461336],[-58.55001111984761,-34.429217650050795],[-58.55100425788843,-34.428615458511416],[-58.55148265370946,-34.42832538210305],[-58.552110991711245,-34.427944366607456],[-58.55323218640702,-34.427272481223],[-58.55592052476161,-34.42593403413087],[-58.55801278367476,-34.424462319324796],[-58.55807847548997,-34.42443604177555],[-58.55844008558633,-34.424287084135585],[-58.55880718195889,-34.42444463489819],[-58.558982432963845,-34.42500549010119],[-58.558981632055726,-34.42505056709337],[-58.558964322986945,-34.42605081981807],[-58.55897354010197,-34.42615008515822],[-58.559099491726535,-34.427043944910956],[-58.55932164487708,-34.428037984289986],[-58.559776255745454,-34.428800471487165],[-58.56030233029839,-34.4298342206666],[-58.56150230639905,-34.430902885308704],[-58.56152375980478,-34.43092118683474],[-58.56163077153503,-34.4310215782656],[-58.561717035606975,-34.43106766430318],[-58.5638787086309,-34.432766194129094],[-58.56461834246315,-34.43327683536758],[-58.565659526856486,-34.43399566631464],[-58.56567344365135,-34.43400610391078],[-58.565760032118945,-34.433938289048996],[-58.56610611484317,-34.434193483033425],[-58.56647782576828,-34.43446755574697],[-58.567014957813846,-34.43486150462579],[-58.567305253857,-34.43506317914052],[-58.5682943310954,-34.43575085224081],[-58.568702830844224,-34.436034997238714],[-58.568745924750985,-34.43606253317853],[-58.56868751524345,-34.436296281324275],[-58.568640458976105,-34.43650303639352],[-58.571047078495326,-34.438270914231055],[-58.57151997119819,-34.4386099701649],[-58.57237949002815,-34.43924199550872],[-58.57423849422036,-34.44059785396217],[-58.576516662076564,-34.44225605395369],[-58.57690348676431,-34.44254004943202],[-58.57755893577545,-34.44302547960054],[-58.57942891650407,-34.44438149120815],[-58.57950412350832,-34.44443643278782],[-58.58041307963158,-34.445025196412416],[-58.582317923727686,-34.445504479765624],[-58.58355914471934,-34.44578713405085],[-58.5846774725435,-34.44600834175234],[-58.58545686390845,-34.44619207659883],[-58.587909562848495,-34.446770279390776],[-58.593869881471775,-34.44802378969918],[-58.594929832553625,-34.448230551567384],[-58.59552909926608,-34.44834744894798],[-58.59514808663923,-34.4483610008068],[-58.59497724734301,-34.448818648985096],[-58.5949659095269,-34.448845554103244],[-58.59483244033428,-34.44901529767415],[-58.59478579593931,-34.449204016791],[-58.59477402708269,-34.44925795479115],[-58.594692840760395,-34.449554506016725],[-58.594681681411934,-34.449572342347054],[-58.59423852434856,-34.4500448859242],[-58.594160026668064,-34.45018814575905],[-58.59403357391262,-34.450592322090365],[-58.59397367877399,-34.45091615583098],[-58.5938777914143,-34.45144680015247],[-58.593817895660436,-34.451770633773606],[-58.59368721129842,-34.45242707381205],[-58.59366306221319,-34.45257105112021],[-58.593799314768994,-34.452879105875496],[-58.593872464161485,-34.45306023016608],[-58.59388302227232,-34.453078406157935],[-58.59424321600013,-34.45365951674175],[-58.59427506943975,-34.45370497605368],[-58.594285546096295,-34.453732136878486],[-58.59435912833355,-34.45388622863747],[-58.59450431096316,-34.45431151797498],[-58.59459832032203,-34.454547048582164],[-58.59463000373982,-34.45460148736829],[-58.59470332746483,-34.45477363302185],[-58.594787299619405,-34.45495488060199],[-58.59487162125323,-34.45511808011231],[-58.594881830817876,-34.45515430435518],[-58.59486946069409,-34.45524425467177],[-58.59484514309658,-34.4553972117473],[-58.5948433316282,-34.45550533816149],[-58.5948409110762,-34.45564956632796],[-58.594851388245004,-34.45567672725226],[-58.59487190453833,-34.455749091812415],[-58.594954838747405,-34.45599347444994],[-58.59497570426436,-34.45604779089063],[-58.59498601100436,-34.4560839312101],[-58.59509205319097,-34.456247470982746],[-58.59511334936561,-34.45627475446709],[-58.59515646124763,-34.456302293897885],[-58.59528518858768,-34.45641193432947],[-58.59539106131545,-34.456584453685664],[-58.5953973089861,-34.45686396968048],[-58.59538338094312,-34.45704408250669],[-58.59524844121929,-34.457303902763016],[-58.595237273345134,-34.45732182839144],[-58.59519166785167,-34.457447412636554],[-58.59515799364142,-34.457510168886124],[-58.59509039350827,-34.45764456588237],[-58.59504555915146,-34.457725158307255],[-58.59500055421259,-34.457814730097546],[-58.59493312418144,-34.45794014763514],[-58.59491061765605,-34.45798497821952],[-58.59494006163649,-34.458174576898365],[-58.594939371258,-34.45821966351457],[-58.594948899015954,-34.45830088508451],[-58.59495670593171,-34.45835107641311],[-58.594958678793425,-34.458364142452794],[-58.59496837711141,-34.458436384653034],[-58.594986913403496,-34.45862585539077],[-58.59498665349361,-34.458643909013894],[-58.59498527325871,-34.45872500258357],[-58.594983633130404,-34.458824149779566],[-58.59498225291987,-34.45890524335397],[-58.59497975204354,-34.45905845657286],[-58.59497880224942,-34.45911251714405],[-58.5949782013752,-34.4591485295368],[-58.594987981379504,-34.45921178694913],[-58.59483131070451,-34.459471355877554],[-58.59469671569909,-34.459713127139466],[-58.594695684307226,-34.45977617251576],[-58.594691624416,-34.46001954803149],[-58.59468989516876,-34.46011868976165],[-58.59468921276146,-34.460163686972066],[-58.59484936465823,-34.460345910970474],[-58.594892129833866,-34.46039149900962],[-58.59491360561315,-34.46040971392695],[-58.59492150662401,-34.46041779101917],[-58.59496710875943,-34.46046440944048],[-58.59497766826122,-34.46048258570247],[-58.595538858333384,-34.460926592725734],[-58.59572936564914,-34.461077319886414],[-58.595884333684964,-34.4611540518087],[-58.59593445324129,-34.461178868345094],[-58.59627728123101,-34.46149839823552],[-58.596363244136846,-34.46156254172584],[-58.59647995771233,-34.461884046301286],[-58.59648810601313,-34.4619064919849],[-58.596644649433685,-34.46230497162011],[-58.59678454870903,-34.46239677816587],[-58.59694592501173,-34.46250679987135],[-58.59708651370017,-34.46256259937754],[-58.59746466214979,-34.46272022701124],[-58.59789519274468,-34.463004760691746],[-58.59791683992851,-34.463013996403404],[-58.598349089856235,-34.463190397618014],[-58.59838147572511,-34.46320874094282],[-58.598576083570016,-34.46328321893031],[-58.59866291587538,-34.46329320712408],[-58.59868430421533,-34.463320496665894],[-58.59869486489455,-34.46333867315655],[-58.59892881056347,-34.46366592654816],[-58.598943142469714,-34.464107757233485],[-58.59893059907999,-34.46420677734812],[-58.59893034018267,-34.4642248311679],[-58.59888511077011,-34.46693745807215],[-58.598948931324955,-34.46702829597711],[-58.59905456874091,-34.46721887373364],[-58.59940576413855,-34.4676917489734],[-58.59950977823653,-34.467981386236794],[-58.59960305375328,-34.46826191590721],[-58.5996667792551,-34.468352838147744],[-58.59970930070574,-34.46841639199942],[-58.59982508319224,-34.468652091171755],[-58.599909253861654,-34.468824364811326],[-58.599972123517695,-34.46896935402681],[-58.600012495756864,-34.46915908464178],[-58.60005466248701,-34.469240776499234],[-58.600053636118346,-34.469303822851096],[-58.60007133340168,-34.46954736383371],[-58.599938796177064,-34.469663043371405],[-58.599198921156365,-34.47031232123893],[-58.598547501172085,-34.470872527679354],[-58.59849157809604,-34.47096206045313],[-58.59824608934959,-34.47132874624577],[-58.5982892624566,-34.47144349257913],[-58.59841280639502,-34.47177235284234],[-58.59875273025472,-34.47209667055123],[-58.59894844461504,-34.47228339952339],[-58.59964384997398,-34.47300371207348],[-58.60027696121477,-34.47365956920196],[-58.600339178222406,-34.47372402148987],[-58.6008405688272,-34.47433384214806],[-58.601071903734415,-34.47482329991191],[-58.60115959032707,-34.475183236844444],[-58.60123486801722,-34.47549223757146],[-58.60135280564696,-34.47560185208639],[-58.60151301223469,-34.4757839957525],[-58.601748808220655,-34.476003130274734],[-58.60192732055662,-34.4763928040049],[-58.60205542892708,-34.477196526592735],[-58.60214067375702,-34.477963733644046],[-58.60243654023374,-34.478499037658295],[-58.60264133186916,-34.47861864458144],[-58.60288933064141,-34.47875680878262],[-58.603227772056606,-34.47894721000493]]],[[[-58.50846961289116,-34.3002695292956],[-58.50843283871091,-34.30111635934334],[-58.508442272788464,-34.30119766397447],[-58.50772284031848,-34.30195483168854],[-58.50637536463149,-34.3032179961184],[-58.50302436616836,-34.30537556285689],[-58.50035627483401,-34.30699176731442],[-58.49767073323619,-34.30896832217907],[-58.4949848889798,-34.31095383034717],[-58.49250965186647,-34.31330254974875],[-58.489165495865116,-34.31564039307399],[-58.48648591906747,-34.31725643635539],[-58.483585804004385,-34.319049926153866],[-58.481254904891124,-34.31939034724501],[-58.47861407354288,-34.31944750931395],[-58.47686039754083,-34.31850616141495],[-58.47600214331344,-34.31730568459025],[-58.47625253831245,-34.31547904386715],[-58.4758204816204,-34.31474348325525],[-58.474621698010196,-34.31435897340347],[-58.47441010580758,-34.31344595168582],[-58.47508418029954,-34.31281439055234],[-58.4761919455362,-34.31282824187587],[-58.4766240007543,-34.31356371121953],[-58.47738511578118,-34.31412303947709],[-58.47740500135801,-34.31302370228571],[-58.4780824578602,-34.31220286628938],[-58.479068964273495,-34.31231438484531],[-58.479726532050165,-34.31259297639451],[-58.481170030256024,-34.31206121099309],[-58.4821749052179,-34.31115436854769],[-58.4829716071868,-34.31034404367495],[-58.48254292377016,-34.30941929744974],[-58.48200877693401,-34.30832192111348],[-58.481466730778145,-34.30766621084989],[-58.480378026502805,-34.30720186842116],[-58.479394027149674,-34.30636036627032],[-58.478069151552106,-34.30634379980506],[-58.476635671140876,-34.306325911442734],[-58.47555216359514,-34.30558226062358],[-58.475011575274266,-34.30484539258638],[-58.47534899877855,-34.30420963887554],[-58.474472841711375,-34.30400940688519],[-58.47471330229196,-34.302732527389665],[-58.47528203472284,-34.301919346990886],[-58.47607292585029,-34.300829568149624],[-58.47707701861267,-34.30056265800264],[-58.478060077251065,-34.30085434636316],[-58.478948842856006,-34.30095558023229],[-58.48005881422025,-34.300239400528675],[-58.48117976022472,-34.29951418893583],[-58.482511047393295,-34.29917033216356],[-58.483728088613546,-34.298536537978464],[-58.485282373452954,-34.298465785458816],[-58.48737803093898,-34.29849195702337],[-58.48969406739662,-34.29834055959486],[-58.492129467584746,-34.29819069559879],[-58.49356615810302,-34.298019366082436],[-58.49477952810117,-34.297583802722585],[-58.49610415311351,-34.297600331711436],[-58.496677644466274,-34.296507859400684],[-58.497675538867654,-34.29597043180797],[-58.499247840024985,-34.29489034068966],[-58.50058232100469,-34.29435717183953],[-58.50200402779069,-34.2950148501148],[-58.504405537223036,-34.296144515455666],[-58.50549175385876,-34.29734794944838],[-58.5073489047258,-34.29856092768834],[-58.508210394922706,-34.29958121697551],[-58.50846961289116,-34.3002695292956]]],[[[-58.50106406724205,-34.29231707226232],[-58.500739219049564,-34.29287183551072],[-58.49968632077153,-34.2934536020685],[-58.498675949983706,-34.29408096186068],[-58.49722804332418,-34.29488316630141],[-58.4960063374911,-34.295787348872196],[-58.49533255194739,-34.29641887616636],[-58.49399808042851,-34.29695212578904],[-58.49156098789466,-34.297192138487986],[-58.4890327693514,-34.297070381474654],[-58.48737314539156,-34.29695952738553],[-58.48583620707114,-34.29666992105836],[-58.48551461170305,-34.29583665600285],[-58.485755793288035,-34.29510954685149],[-58.486646814267495,-34.2944807594317],[-58.487320666623106,-34.29384915437234],[-58.48810152342871,-34.29330910492843],[-58.48833188314173,-34.29258186276957],[-58.48823494587269,-34.29193165000415],[-58.48726343851623,-34.2910091409159],[-58.48728334345197,-34.28990970450078],[-58.48519459670177,-34.28951410427621],[-58.48486633965848,-34.28905031713067],[-58.48521940042098,-34.288144325781],[-58.486315952719565,-34.28815797884154],[-58.487324715871374,-34.287620772427935],[-58.48800521296841,-34.28661968611007],[-58.489103385850854,-34.28654327932915],[-58.49065258890279,-34.28674283270187],[-58.4919695499262,-34.28657900155457],[-58.49308682882722,-34.2860430994262],[-58.49441128102776,-34.286059594242744],[-58.4959445673367,-34.286538434116984],[-58.497042114467,-34.28710199057082],[-58.49812223774423,-34.28802582375251],[-58.49932329253969,-34.28887012116209],[-58.500184582566234,-34.289890370867006],[-58.500718708750156,-34.2909876642177],[-58.50100248876871,-34.29211793774151],[-58.50106406724205,-34.29231707226232]]],[[[-58.48020170280485,-34.29714949539252],[-58.480020726929396,-34.29814773062999],[-58.47907258589901,-34.29832516262819],[-58.47896821805072,-34.297494635881726],[-58.476876713691375,-34.297838061761546],[-58.47554873267471,-34.29800172072428],[-58.474005223680344,-34.29807259714992],[-58.47213828946599,-34.29740934318408],[-58.47082196691721,-34.29693320153735],[-58.46928671836442,-34.29655345807255],[-58.46812730983889,-34.29640386172068],[-58.46814077377717,-34.29566485479924],[-58.4689810409658,-34.294855159552625],[-58.47009368919941,-34.2945895615456],[-58.47191352266771,-34.294846670034005],[-58.473285913827375,-34.2952243434919],[-58.475216104975985,-34.29539263714209],[-58.4769742391422,-34.29545969134545],[-58.47835080580356,-34.295612012286185],[-58.47927209440742,-34.296308586760865],[-58.48020170280485,-34.29714949539252]]],[[[-58.47756477068936,-34.28568723955131],[-58.47750129132717,-34.28619126001221],[-58.476940801348675,-34.28655373806157],[-58.47621766403288,-34.28690526546583],[-58.47539416565547,-34.28680493875909],[-58.47489973693012,-34.286528278884106],[-58.47452642812047,-34.286154118337315],[-58.472148755667945,-34.28612448715133],[-58.47094197613945,-34.286199480696055],[-58.469942285201306,-34.28623208200258],[-58.46884062285868,-34.28649783337565],[-58.46794866725306,-34.28657682028413],[-58.467124342632175,-34.28652147485543],[-58.46682614662061,-34.286202295085616],[-58.466859730919865,-34.286148642379125],[-58.46724463148967,-34.28588300120052],[-58.468412340342525,-34.28557306337383],[-58.46957567697126,-34.28549745231586],[-58.47090024962036,-34.2855139588752],[-58.47255128231683,-34.28548951717989],[-58.474700161048595,-34.28556136550214],[-58.47756477068936,-34.28568723955131]]],[[[-58.40314999973532,-34.25691072126465],[-58.4024786170471,-34.25740662251289],[-58.40235150817605,-34.258405433806516],[-58.40185123784507,-34.25845293072491],[-58.40159124736027,-34.257845493542796],[-58.40081661863284,-34.25747466546385],[-58.400236123258175,-34.25659252312482],[-58.3992539495261,-34.25571417071974],[-58.39865569211078,-34.25520141244382],[-58.39773276716822,-34.25463929265764],[-58.39758454878848,-34.25386206362112],[-58.39714988023636,-34.25330643223827],[-58.39699825036205,-34.252709562584215],[-58.3967264885265,-34.25215604393745],[-58.39685355454752,-34.25174308601586],[-58.398062237375484,-34.25153384406458],[-58.39846154237672,-34.2510794184038],[-58.39994643552622,-34.25118929186621],[-58.40071172985964,-34.251469914504135],[-58.401316036240004,-34.252821018652234],[-58.40134536095898,-34.25299273186354],[-58.401993668887506,-34.25373144140811],[-58.40231542079174,-34.254519991663955],[-58.40279175978235,-34.25516632220021],[-58.40294930242962,-34.25603375463924],[-58.40314999973532,-34.25691072126465]]],[[[-58.36956905440877,-34.20112891649498],[-58.368277153674576,-34.20117484946216],[-58.36814720915654,-34.20003743190218],[-58.36832143545241,-34.19887697427302],[-58.36885111773581,-34.198974178981],[-58.36944510753078,-34.199676047116675],[-58.36956905440877,-34.20112891649498]]],[[[-58.36642540267533,-34.19875274569078],[-58.36573242758093,-34.1992483050305],[-58.365630981452995,-34.20057193966024],[-58.36464761576967,-34.20036960818389],[-58.36474547940314,-34.199235209022014],[-58.364846941152265,-34.197911577536885],[-58.36531585326371,-34.19722369376785],[-58.36588358190759,-34.197032978055034],[-58.36642540267533,-34.19875274569078]]],[[[-58.360000915543274,-34.20223691263371],[-58.35948549012846,-34.203645190582236],[-58.35898083537859,-34.205053601154496],[-58.3583530705185,-34.206099844042434],[-58.35736121042456,-34.2068979061561],[-58.356451944164995,-34.206786749323804],[-58.35591943103432,-34.20627495075814],[-58.3557052387655,-34.204451305703415],[-58.354301972859666,-34.20463999229696],[-58.35413823533246,-34.204133107443205],[-58.354924107107244,-34.20389115647434],[-58.354775025909376,-34.20262727982435],[-58.35331563073735,-34.202355540605346],[-58.353357858710346,-34.200183863506034],[-58.35414871436376,-34.200239433098176],[-58.354048950294754,-34.19922858353932],[-58.353580554794505,-34.19821283698062],[-58.35390895263087,-34.1935932792087],[-58.35512486644235,-34.19354626920144],[-58.35571850684561,-34.194257262821644],[-58.35661671368234,-34.194927086375394],[-58.356965898865106,-34.195941221689324],[-58.35799045748719,-34.19625226252326],[-58.35884719356982,-34.196263683759994],[-58.35992389320953,-34.19668349897909],[-58.35984126840847,-34.198151647854154],[-58.35935322851884,-34.198145215343615],[-58.35919883620642,-34.1999548926318],[-58.3599059503581,-34.20097371505138],[-58.360000915543274,-34.20223691263371]]],[[[-58.351631445671714,-34.09537000840128],[-58.3509896531124,-34.09718232806297],[-58.348138141658275,-34.100074211211805],[-58.347638137058674,-34.101275429401326],[-58.346551793094484,-34.100855457825084],[-58.34605424761676,-34.10024502148776],[-58.34563128637359,-34.09802209742208],[-58.34726766129338,-34.09521341401701],[-58.34767776167874,-34.092496749258345],[-58.34798947800476,-34.08926491708862],[-58.348639008328306,-34.087056123664894],[-58.347797044131596,-34.08633300307144],[-58.34833126596595,-34.083924425622165],[-58.348389864803515,-34.08089663737884],[-58.348799332011424,-34.07877478663941],[-58.34943521791341,-34.077268916184124],[-58.35051346087426,-34.07809428917634],[-58.350960692975626,-34.07961448480462],[-58.35074011886647,-34.08485740282985],[-58.351414950816,-34.087498298550415],[-58.351593963100306,-34.09113308953274],[-58.351631445671714,-34.09537000840128]]],[[[-58.34744093984851,-34.21824952587186],[-58.34711886378201,-34.21919164920912],[-58.34479528905651,-34.2214953092047],[-58.34318817820161,-34.2221048343749],[-58.34200857225226,-34.2241713430224],[-58.34005836771257,-34.226795361940525],[-58.33926813241306,-34.22836217549505],[-58.33847422129257,-34.230118296730346],[-58.338652983798134,-34.2326443883135],[-58.33947615693214,-34.233286285258266],[-58.33907673537946,-34.23429050649077],[-58.3388231153281,-34.23561211645336],[-58.33850336755868,-34.236428096957106],[-58.33728682568266,-34.236474980532584],[-58.33608139796538,-34.23595420689692],[-58.33526432532217,-34.23499696983799],[-58.33521418832017,-34.233671363090885],[-58.33555613259384,-34.231719983071166],[-58.33543991581499,-34.22988866551608],[-58.33606228691241,-34.229139798682674],[-58.3360047692206,-34.22819263176022],[-58.335497775512344,-34.22692408362809],[-58.3349271950235,-34.225023624009125],[-58.334433767413124,-34.223061222032406],[-58.33423920993702,-34.22135505614193],[-58.334472701608455,-34.21940228589427],[-58.33603644704343,-34.2187921192396],[-58.33673962329934,-34.21779189431852],[-58.338737446142154,-34.2166196776523],[-58.33829541501532,-34.21591977854171],[-58.33876708270835,-34.215105837953175],[-58.339538750108446,-34.214485106729036],[-58.3405148794716,-34.21506590709221],[-58.34172119520942,-34.21552360538063],[-58.34299991068018,-34.216171511921544],[-58.344674138804834,-34.216004482611986],[-58.34565521953452,-34.216332965647034],[-58.34730258554465,-34.21755360739511],[-58.34744093984851,-34.21824952587186]]],[[[-58.34214798267954,-34.15117379414946],[-58.34187221425152,-34.151963340887555],[-58.341099670704274,-34.152647174469806],[-58.34073536649537,-34.15352564346209],[-58.34061075857878,-34.15434422200884],[-58.33960806333135,-34.15515117695628],[-58.33898852695982,-34.155773924212674],[-58.33840149266623,-34.156397082984],[-58.337703576944385,-34.157144974124],[-58.33700506299294,-34.157919877293764],[-58.33612333947057,-34.158638308188976],[-58.33535318071825,-34.159195919311024],[-58.3345178310828,-34.15921194328847],[-58.334615017089405,-34.15978105104136],[-58.334952025322956,-34.16029019038956],[-58.33474615587026,-34.16082832244619],[-58.33494833487864,-34.16211989665145],[-58.334384595458694,-34.16211244495402],[-58.33437117850861,-34.16059801424746],[-58.33376903551642,-34.160337696847265],[-58.33347472003992,-34.159865106537886],[-58.33260436836831,-34.16000682727785],[-58.33255064683201,-34.16271906837768],[-58.33284804591852,-34.163038444445384],[-58.332904480560934,-34.164021642930344],[-58.33303134069054,-34.16528523311958],[-58.33319758685485,-34.166197736460575],[-58.33310422666128,-34.16707981912489],[-58.33291709526374,-34.167771359172264],[-58.33239253897016,-34.16797170363282],[-58.33221936037763,-34.168501180388475],[-58.33266057692815,-34.16867829532264],[-58.333021542849686,-34.16907066731996],[-58.33302309347836,-34.1695393470656],[-58.33275613564641,-34.16987837058662],[-58.33218128327147,-34.169879743490114],[-58.33185313020273,-34.16946983024109],[-58.33165781308608,-34.16892640360917],[-58.33132375237853,-34.16827302413327],[-58.331393799065296,-34.16747180784236],[-58.33106969041113,-34.16631380363859],[-58.33047656408423,-34.16559391199571],[-58.33026688573734,-34.16468076604104],[-58.32982475427901,-34.16400796687861],[-58.32925218878223,-34.1633514635932],[-58.328661094007984,-34.1625323985264],[-58.32855934463112,-34.16164774853573],[-58.32887609381593,-34.15989441689874],[-58.32905781680982,-34.157841742107095],[-58.32930279355833,-34.15697075541755],[-58.33002221453344,-34.15624120396865],[-58.330663864743315,-34.15560070626043],[-58.331365918508105,-34.154645572849525],[-58.33196247066977,-34.15409464112644],[-58.33288968492623,-34.15381851469208],[-58.333804938801244,-34.1535962810508],[-58.33410813273319,-34.15306845176958],[-58.335069816636484,-34.15269364154599],[-58.33639075741839,-34.15224241299511],[-58.3371357549275,-34.15185568285488],[-58.3377921156777,-34.1515668561498],[-58.33877986481192,-34.15096701563005],[-58.33915108931712,-34.15028696562374],[-58.34004592597945,-34.150001347915016],[-58.34053498567234,-34.14994471929633],[-58.34178223392153,-34.15047494055346],[-58.34214798267954,-34.15117379414946]]],[[[-58.34090532649938,-34.14875980784037],[-58.34079001213694,-34.149109841754274],[-58.33688115943752,-34.148832813924955],[-58.33502293528575,-34.146852404778265],[-58.33473870156881,-34.14587520354101],[-58.33441889133978,-34.14505080687764],[-58.334484679209474,-34.14337516118349],[-58.33503704584063,-34.142309919814274],[-58.335429007413055,-34.141684188824165],[-58.33546029036447,-34.14010731081888],[-58.33593925555029,-34.13891481034756],[-58.336790176280424,-34.138105911134936],[-58.337627213682715,-34.13799074783846],[-58.33784787607777,-34.1383451332089],[-58.33789963950979,-34.14339331217529],[-58.33816012084108,-34.14392848923903],[-58.338668042904644,-34.14510695330845],[-58.339353007181046,-34.14665721630594],[-58.34035534082199,-34.1480585277616],[-58.34090532649938,-34.14875980784037]]],[[[-58.33579885239433,-34.192163436696696],[-58.33547155884066,-34.19335793941158],[-58.33522402911435,-34.194364116213684],[-58.33392471683822,-34.19478857379477],[-58.33317168277705,-34.19446306617229],[-58.3321996046685,-34.19369311239411],[-58.33106699941293,-34.19336256572865],[-58.3303949477701,-34.19278581439113],[-58.32957474217215,-34.1920179032941],[-58.32936069474248,-34.191320966919704],[-58.32859270763089,-34.19175249467265],[-58.3280463928423,-34.19250236151391],[-58.327222446073215,-34.191923575252964],[-58.323812555586876,-34.187714234732745],[-58.32023692070347,-34.184257783939664],[-58.317408345961425,-34.181441657471076],[-58.31689219593419,-34.180677182399506],[-58.31660749804699,-34.17972677540147],[-58.316633950929536,-34.178402075324556],[-58.31718905394673,-34.17721108631786],[-58.31773784239216,-34.17633542686724],[-58.31850043239682,-34.176156905061625],[-58.319481853351995,-34.17642311206639],[-58.320465865092615,-34.17656320872814],[-58.32136512300373,-34.17714371850114],[-58.32182298708482,-34.17702398820318],[-58.32175960667677,-34.176392099844776],[-58.322236252183075,-34.17532617817286],[-58.32300381612047,-34.17489532722857],[-58.32407134571291,-34.174657506519466],[-58.3254401524293,-34.17454947818313],[-58.324470881670024,-34.17365338700656],[-58.32349172765912,-34.17326165124769],[-58.32229150802369,-34.172550631000114],[-58.322397465673596,-34.171037815736085],[-58.32173589959458,-34.169955859629425],[-58.32200121063877,-34.168066677196656],[-58.322645955679356,-34.166182837402836],[-58.323208422413124,-34.16461338034944],[-58.32445487186415,-34.16299934967312],[-58.32544089295129,-34.16303963753767],[-58.32634730470635,-34.16326792076761],[-58.3270968409791,-34.16375556076431],[-58.32785276393335,-34.163918813439615],[-58.32849452529173,-34.16436889597617],[-58.328862044605614,-34.1649776284271],[-58.329109702096446,-34.16561185424862],[-58.32948617628634,-34.16577009252657],[-58.32951831603939,-34.16633836877516],[-58.3293540047005,-34.16696707406353],[-58.32964137211581,-34.16779107114208],[-58.33030196332953,-34.16893550098509],[-58.330964362147434,-34.169989817141015],[-58.331401072625646,-34.170941959241844],[-58.33200278208347,-34.17122940051511],[-58.33186901471608,-34.171957705527326],[-58.331375555853235,-34.17223053766964],[-58.33094452634031,-34.17263946956019],[-58.330152428573705,-34.17265602116393],[-58.32938837312876,-34.17289828042845],[-58.32924413757302,-34.17415822641389],[-58.330032819326696,-34.17486266880897],[-58.3298998247843,-34.17555489211968],[-58.33025439972383,-34.176821481916996],[-58.33032036883702,-34.177327079448055],[-58.32992456651228,-34.178142084917646],[-58.330663748195434,-34.17916131006588],[-58.330616397139316,-34.18155824078071],[-58.33174260001148,-34.18220407909858],[-58.33207861011411,-34.18441675184277],[-58.332363605771704,-34.18536697400593],[-58.33326213933034,-34.18600982187432],[-58.33330200059127,-34.18784001281043],[-58.33266616002449,-34.189282765250454],[-58.333409156982334,-34.190112801790356],[-58.33469475329438,-34.190382180195556],[-58.33551249411396,-34.1912763886517],[-58.33579885239433,-34.192163436696696]]],[[[-58.33075916733169,-34.21288138436223],[-58.33019313761613,-34.22237391542289],[-58.330246825203524,-34.22351028027874],[-58.32939787187825,-34.224193109077625],[-58.329387982141306,-34.22469765535012],[-58.329909705881484,-34.22520931752253],[-58.33032829232591,-34.22710770999512],[-58.33021901929082,-34.22880977331382],[-58.33050184909182,-34.22988615870002],[-58.33017461986451,-34.23108055874344],[-58.32888584325771,-34.230937254971636],[-58.3277601526056,-34.23022826565646],[-58.32692093905135,-34.2304064393046],[-58.325765626441594,-34.2312112680086],[-58.32422419983368,-34.23232642436513],[-58.32275748251664,-34.233505745678634],[-58.322356668918204,-34.23457294079619],[-58.32182498570565,-34.23456590185817],[-58.32107905535239,-34.23386198965343],[-58.32025838978238,-34.233093907272725],[-58.31974908839457,-34.23195150612448],[-58.31901186787398,-34.23080598554762],[-58.31742581605216,-34.230342358256394],[-58.31516410691636,-34.2294901673217],[-58.31395799412069,-34.22903139196552],[-58.31317753848295,-34.23009300545563],[-58.3128438324828,-34.23160268641259],[-58.31229604358583,-34.232415184749954],[-58.311615189343144,-34.23227931650983],[-58.3110389000952,-34.23069373880614],[-58.30969966166609,-34.22928668807397],[-58.309722200184225,-34.228151284290234],[-58.3105636816054,-34.227847692756264],[-58.311944133057544,-34.22717313898293],[-58.31226033636389,-34.226546636337154],[-58.3137179747134,-34.225810017458016],[-58.315475481595364,-34.225266960014906],[-58.31700648372817,-34.22465766949415],[-58.31868303071932,-34.22436588631875],[-58.319519605481254,-34.224314211223806],[-58.32073602048611,-34.22426730210868],[-58.321580169312206,-34.2238368078925],[-58.32227489541371,-34.22327824361777],[-58.32306166369384,-34.22190061008711],[-58.322857480302346,-34.22069912226698],[-58.32371390268063,-34.21963796243118],[-58.324576647861214,-34.218261391612735],[-58.325355904894444,-34.21726217162512],[-58.32691563958545,-34.21520080194665],[-58.328231431737606,-34.21395645323668],[-58.32946383091666,-34.21308946220612],[-58.33045593127092,-34.212850281310295],[-58.33075916733169,-34.21288138436223]]],[[[-58.33031041534616,-34.231902573648114],[-58.33018513343523,-34.23442470159936],[-58.33002215145353,-34.23499039576254],[-58.32984187441573,-34.23643916206479],[-58.329445998129074,-34.23725404933531],[-58.32918728633804,-34.23882794836836],[-58.32834928105521,-34.23894300782672],[-58.32760326172421,-34.23823907771042],[-58.327736022360575,-34.235338529669455],[-58.32821025568852,-34.23439841533487],[-58.3292211780528,-34.23321311226219],[-58.32971051037051,-34.23205690045598],[-58.33031041534616,-34.231902573648114]]],[[[-58.33005574135063,-34.206157105150275],[-58.329195744649475,-34.207407514409255],[-58.32718665321797,-34.209147460509534],[-58.32571903242406,-34.21038986636922],[-58.32388044312472,-34.211185681934914],[-58.32121640512755,-34.21146576631512],[-58.31983465216829,-34.212204321696646],[-58.31821798663988,-34.21331717983795],[-58.31669845902889,-34.213358849660246],[-58.314649956056165,-34.21326684549677],[-58.3131279204013,-34.21343463007106],[-58.312040013808456,-34.21468122150649],[-58.3110430307742,-34.215171883624656],[-58.309675285774865,-34.21521562452114],[-58.30854782385431,-34.21463182132716],[-58.30766569047754,-34.21316815951535],[-58.30698238829077,-34.21315852181932],[-58.3062765596551,-34.21428427788034],[-58.30580338918855,-34.215161008061756],[-58.30450148734448,-34.215710422288254],[-58.30342721757935,-34.21626312912003],[-58.30250737375422,-34.216691807415515],[-58.30136732476238,-34.21673884148348],[-58.30060181901375,-34.21704348578746],[-58.299983095748175,-34.217602615977505],[-58.2993706277521,-34.21784632596625],[-58.29838491716605,-34.21776932610997],[-58.297788898022446,-34.21719299531883],[-58.29743203884009,-34.216052243818034],[-58.297225717790326,-34.21497667447466],[-58.29648800145355,-34.21389364242883],[-58.295514893423594,-34.21318582096555],[-58.29527581342152,-34.213750336539874],[-58.29563394140074,-34.21482798192464],[-58.29599957022629,-34.21552719976509],[-58.29621093326536,-34.21635045387116],[-58.29567445952451,-34.21659529895768],[-58.29516196625532,-34.21564159098172],[-58.294388847631865,-34.216324743462856],[-58.29429644682105,-34.21714364529261],[-58.294510326173324,-34.21784078633579],[-58.29525939565295,-34.218356094358],[-58.29562138575488,-34.2192445362946],[-58.29582639753919,-34.22038320348781],[-58.2957353145511,-34.22113910023967],[-58.29525320898793,-34.22245733028559],[-58.29492808689071,-34.223525336126514],[-58.29490281585881,-34.2247868998356],[-58.29442574204247,-34.22585281255207],[-58.29533823814846,-34.22580259307898],[-58.295705235630955,-34.226438725201014],[-58.29538263498603,-34.22738061902878],[-58.29527265689198,-34.22908267144196],[-58.294572840834846,-34.22989304875314],[-58.29365027996658,-34.230447890134016],[-58.292504895785875,-34.23074710101771],[-58.29106589682112,-34.2305375120014],[-58.2900078660144,-34.2302701351799],[-58.28871951442279,-34.230125738142746],[-58.28797412866213,-34.229421111699224],[-58.28692118333,-34.22890151954684],[-58.28610610795036,-34.227880438912],[-58.28558731576376,-34.227242142221726],[-58.285830333865654,-34.22648843871848],[-58.286220127086914,-34.225989128573154],[-58.286240441421505,-34.2249798975233],[-58.28587850693748,-34.22409146694732],[-58.28529267317009,-34.22301052639325],[-58.28478145522649,-34.22199381715081],[-58.284496794864154,-34.22104333928565],[-58.28352376540499,-34.22033552137942],[-58.28324166776005,-34.21925893992998],[-58.28326958038805,-34.21787121021651],[-58.28456160737176,-34.21782636566354],[-58.284576868828616,-34.21706944762688],[-58.28382523328419,-34.21668025499718],[-58.28369253096985,-34.21573196257322],[-58.283768450847404,-34.21573300394644],[-58.28415821231666,-34.21523377833941],[-58.283948282119916,-34.21434745162556],[-58.28366243983,-34.213460085128546],[-58.283866423664186,-34.21087601489663],[-58.28375157181251,-34.209044615197456],[-58.28407180958031,-34.20822894430579],[-58.284460321202,-34.20779272516942],[-58.28499168698023,-34.20780027286836],[-58.28557404401894,-34.20528468138698],[-58.28674205149615,-34.20384990198851],[-58.286835762124554,-34.202967914913664],[-58.28738245210556,-34.202218453876576],[-58.28814281456366,-34.20216610411791],[-58.289299344933454,-34.20129911444581],[-58.289324751947134,-34.20003757851264],[-58.29024715069001,-34.199482691523734],[-58.29724348292985,-34.1951647643103],[-58.29785825735082,-34.19479481985443],[-58.298612259194414,-34.195057868779074],[-58.2993396008305,-34.196645484408],[-58.29996839224207,-34.195581799041385],[-58.299223272454924,-34.19487722692616],[-58.29924480603189,-34.19380487963816],[-58.300332798996465,-34.19255829335323],[-58.30210250205535,-34.19138439733532],[-58.30425804976344,-34.189900534026016],[-58.30557229373792,-34.18872022001345],[-58.30718885056141,-34.18760723615187],[-58.30826901471324,-34.186739126428144],[-58.30918480105331,-34.18649969020776],[-58.31063431640624,-34.18614156633127],[-58.31211580009922,-34.18527003581154],[-58.313306948765614,-34.18535892518665],[-58.31487931571503,-34.18645377185504],[-58.316077286364305,-34.18729094727828],[-58.31773942080509,-34.18769298127986],[-58.319091715115164,-34.18840611976702],[-58.320072081568554,-34.18873537314419],[-58.32073381268554,-34.18981736296184],[-58.32170661748636,-34.19052514747088],[-58.32198901370877,-34.19160178990836],[-58.322806639672145,-34.1924960140449],[-58.32384201293192,-34.193897741914256],[-58.32458009486928,-34.194980090788526],[-58.32554586985865,-34.19606544720127],[-58.32596033110473,-34.198153069203634],[-58.32664114366416,-34.198288301141986],[-58.3266897452176,-34.19967695621686],[-58.32751249162044,-34.20031876725901],[-58.3277091880356,-34.201898764507845],[-58.328002965739266,-34.202407380525386],[-58.328834473061306,-34.20260767216889],[-58.32934235968661,-34.20381314593947],[-58.32985025479465,-34.205018712417576],[-58.33005574135063,-34.206157105150275]]],[[[-58.32923440785998,-34.20930090028222],[-58.32876514946853,-34.20998862334387],[-58.327917491938976,-34.21060836788231],[-58.327067264780304,-34.21135412798364],[-58.32661542696046,-34.211158882862506],[-58.32738964074417,-34.2104120527065],[-58.32793613386689,-34.20966220945423],[-58.328453550335766,-34.20928144176329],[-58.32923440785998,-34.20930090028222]]],[[[-58.32818900055347,-34.21225236880416],[-58.327189363241914,-34.212870061377664],[-58.32573667222117,-34.21335551817602],[-58.32519510732585,-34.213853039442185],[-58.32397764577265,-34.2139630829922],[-58.32475319360748,-34.21315316396636],[-58.32636271943497,-34.21241743472121],[-58.32778593018515,-34.21177833972512],[-58.32818900055347,-34.21225236880416]]],[[[-58.3249230461592,-34.21444434969956],[-58.32394038170308,-34.21585539152104],[-58.3223368574494,-34.21627568205009],[-58.32373989679143,-34.21446469158134],[-58.3249230461592,-34.21444434969956]]],[[[-58.322560041622324,-34.214313767597375],[-58.32105456859415,-34.2158170128109],[-58.32012459451341,-34.21675107760743],[-58.318591124960946,-34.21748693186485],[-58.317968833134785,-34.21823531297468],[-58.31645042665352,-34.21821385901012],[-58.31868828519502,-34.216415657080276],[-58.3200013882758,-34.215298357322844],[-58.321384488514724,-34.214496439575456],[-58.322560041622324,-34.214313767597375]]],[[[-58.32120526597294,-34.21973083090118],[-58.32074344690304,-34.220040113630596],[-58.319890572094934,-34.2209121342784],[-58.31919089534933,-34.221722930483686],[-58.31848896957995,-34.222659491418916],[-58.31695421948559,-34.22345809973065],[-58.314880592606485,-34.22462758581242],[-58.31281310915729,-34.22548171987232],[-58.31198166829716,-34.22528067206313],[-58.31229906749952,-34.224591151926425],[-58.31268997790296,-34.22402879571996],[-58.313770380305925,-34.22316065612987],[-58.313634833226395,-34.22233850070254],[-58.31349800134676,-34.2215793570984],[-58.314193770859035,-34.22095823658895],[-58.315874054692124,-34.22047722437529],[-58.31770236363342,-34.22018759907774],[-58.31899434226934,-34.220142744649145],[-58.31938389859028,-34.2196434771381],[-58.32007481516281,-34.21927410640521],[-58.32068980326755,-34.2189037699328],[-58.32101730223352,-34.218808958946475],[-58.32120526597294,-34.21973083090118]]],[[[-58.2712407096618,-34.22678690266222],[-58.270759530968064,-34.22804195674931],[-58.269513822679166,-34.229538592764406],[-58.267634959321185,-34.232288263237855],[-58.26591043626973,-34.2349138091513],[-58.26421921295093,-34.235899368115966],[-58.26393850105323,-34.23475971693098],[-58.263683418459166,-34.23235849668622],[-58.262620254361316,-34.23234350747654],[-58.26148770696708,-34.23573453809159],[-58.260452738287384,-34.23433178590774],[-58.26094438509436,-34.23257217981016],[-58.260674040094216,-34.230927864916175],[-58.261456536678445,-34.22980321200685],[-58.262519663356564,-34.2298182845971],[-58.2636162244944,-34.228193306734184],[-58.264720454919726,-34.226189923241094],[-58.26655831764333,-34.22545871742105],[-58.26704536882583,-34.22498797233085],[-58.26946432064633,-34.22449035417937],[-58.27112206419613,-34.22514473289692],[-58.2712407096618,-34.22678690266222]]],[[[-58.25964497299751,-34.20693746924156],[-58.259616569180004,-34.20832511111565],[-58.25928192262739,-34.20983469097746],[-58.25771952195355,-34.21195783325413],[-58.25554703612387,-34.214198454169185],[-58.25353922063893,-34.2158105523583],[-58.251722050945475,-34.21553252594958],[-58.25038644811961,-34.21399933020293],[-58.25088354878908,-34.2119873894821],[-58.25154543991104,-34.209346768520774],[-58.25296651239815,-34.206716909339406],[-58.25328156740386,-34.205639798865946],[-58.2545186015169,-34.20509844207611],[-58.25525966837393,-34.20599225719683],[-58.256307082272926,-34.20676414314376],[-58.25813431580325,-34.20653754745567],[-58.25964497299751,-34.20693746924156]]]]},"properties":{"id":"municipio-san-fernando","name":"Partido de San Fernando","level":"municipality","derivation":"union-dissolve","source":"Poder Judicial de la Nación · Justicia Nacional Electoral · Cámara Nacional Electoral","sourceUrl":"https://catalogo.datos.gba.gob.ar/dataset/circuitos-electorales","license":"CC BY 4.0","circuitCount":16,"topology":{"polygonCount":25,"interiorRings":0,"overlapRatio":0.000009522668213230126,"allRingsClosed":true}}}]}
