{"type":"FeatureCollection","name":"ATIY — Jerarquía territorial contenida de San Fernando","properties":{"crs":"EPSG:4326","municipalitySource":"Poder Judicial de la Nación · Justicia Nacional Electoral · Cámara Nacional Electoral","generatedBy":"deterministic-topology-intersection"},"features":[{"type":"Feature","geometry":{"type":"MultiPolygon","coordinates":[[[[-58.60223283070906,-34.479815307085275],[-58.60134334007492,-34.48053758563526],[-58.60031792653531,-34.48135900237458],[-58.59928671725572,-34.48218506184354],[-58.59774816614642,-34.483468821049385],[-58.59768266912415,-34.48352347143103],[-58.59762008476467,-34.48357271293214],[-58.59585090948603,-34.4849647036336],[-58.59583426289177,-34.48497780120777],[-58.59400393832482,-34.48641790429345],[-58.59318108994502,-34.48599041998996],[-58.592635985733764,-34.485702440406655],[-58.592448,-34.4855832],[-58.5921256,-34.4853229],[-58.591668,-34.4851324],[-58.5912197,-34.4849216],[-58.5887371,-34.4836364],[-58.5882663,-34.4833281],[-58.5881525,-34.4832712],[-58.58775495984118,-34.48312378521812],[-58.58761407874082,-34.48304935746699],[-58.5862460279046,-34.482326613628985],[-58.584809798542146,-34.48009247906517],[-58.582974616579016,-34.47913499282353],[-58.58300824486312,-34.4791085706003],[-58.58296252194787,-34.47908471516626],[-58.58291541928462,-34.47912264188715],[-58.58282131510571,-34.47919841388562],[-58.58094586378383,-34.47828567401814],[-58.57896051687458,-34.47732248591365],[-58.578783200941764,-34.47709625524075],[-58.577874972985676,-34.4759374816416],[-58.57786078190833,-34.475919375784294],[-58.575400907043516,-34.4755409334974],[-58.57494822610567,-34.4754712902762],[-58.5749891,-34.4754171],[-58.5745254,-34.4751967],[-58.5741636,-34.4750248],[-58.5736748,-34.4747925],[-58.5727011,-34.474329],[-58.57197106205551,-34.473980219613935],[-58.57112103288002,-34.47354993189235],[-58.56980869945424,-34.47288562415324],[-58.56976831797633,-34.47286450965499],[-58.56930485629551,-34.47262217674999],[-58.56922217347539,-34.47257894390286],[-58.56905242463047,-34.47249018633689],[-58.56868563540255,-34.472319711849345],[-58.56846385618172,-34.47221663439739],[-58.56838604016997,-34.47217830522353],[-58.56812904995762,-34.472051721731184],[-58.56775153831011,-34.47186577401626],[-58.56685871061641,-34.47140851580213],[-58.56683859281478,-34.47144226071616],[-58.5668377661869,-34.47144187787141],[-58.56672230940025,-34.47138840517221],[-58.56436671029098,-34.47029743212278],[-58.56137429333389,-34.46885167536311],[-58.55735093286445,-34.46693664217526],[-58.55376821685557,-34.46522797335125],[-58.54951058178435,-34.46321800096839],[-58.54706551831631,-34.46207303721359],[-58.546927372229604,-34.46200834676109],[-58.54574960630804,-34.46145682762489],[-58.54275847861081,-34.45999845663769],[-58.54007407540041,-34.45873059294873],[-58.539338197696665,-34.45838209832692],[-58.5391209,-34.4582778],[-58.53880282042166,-34.45812646890001],[-58.53739530355958,-34.457450280670955],[-58.5372293,-34.4573699],[-58.537123191454384,-34.457319554704206],[-58.53697643882157,-34.45724905295352],[-58.536303676803676,-34.45691463473932],[-58.53615539575831,-34.45684092682914],[-58.53615510151464,-34.45684078056576],[-58.53615510900761,-34.456840778593396],[-58.53490857365187,-34.45619638226416],[-58.5348423,-34.4561601],[-58.5346779,-34.4560749],[-58.5337744,-34.4556066],[-58.5334854,-34.4554568],[-58.5328464,-34.4551255],[-58.5325665,-34.4549804],[-58.5319307,-34.4546509],[-58.5316334,-34.4544968],[-58.531022,-34.4541798],[-58.5306972,-34.4540115],[-58.5301056,-34.4536974],[-58.5297878,-34.4535232],[-58.5292041,-34.4532035],[-58.5288726,-34.4530218],[-58.5281747,-34.4526395],[-58.5277352,-34.4523965],[-58.5276378,-34.4523453],[-58.5275274,-34.4522898],[-58.5268321,-34.4519467],[-58.5266632,-34.4518633],[-58.5264009,-34.4517339],[-58.5259986,-34.4515339],[-58.5243614,-34.4507172],[-58.5241647,-34.450619],[-58.5235665,-34.4503315],[-58.523435,-34.4502699],[-58.5232196,-34.4501637],[-58.5212608,-34.4492162],[-58.5209896,-34.449085],[-58.5208237,-34.4489981],[-58.520674,-34.4489113],[-58.5206037,-34.4488715],[-58.5178289363772,-34.44629207419164],[-58.51793619231593,-34.445914627423875],[-58.51915455864871,-34.44550101371906],[-58.52081986441957,-34.44539614130869],[-58.5225114075038,-34.445118581630396],[-58.5237148953135,-34.444745187565324],[-58.52506271401349,-34.44421118143284],[-58.526619382925034,-34.44355349740627],[-58.52808958475058,-34.442858700408884],[-58.52911065760495,-34.44233894771936],[-58.52996711467308,-34.44189838402878],[-58.53074658605611,-34.44150191993428],[-58.531428783917384,-34.441068313704065],[-58.532121704126766,-34.44064381191417],[-58.53328722016099,-34.43994546766058],[-58.53445361800935,-34.4392020502856],[-58.53521536967755,-34.43857105334633],[-58.535457999458096,-34.43831632445971],[-58.5354617,-34.4383142],[-58.5367826,-34.4396567],[-58.5368396,-34.4396561],[-58.5368904,-34.4396875],[-58.5369614,-34.4397314],[-58.5370865,-34.4398302],[-58.5373198,-34.4400679],[-58.5375334,-34.4402945],[-58.5376135,-34.4403794],[-58.5377196,-34.4404738],[-58.5378389,-34.4405784],[-58.5387222,-34.4412564],[-58.5390171,-34.4414804],[-58.5404561,-34.4425736],[-58.5407016,-34.4427665],[-58.5407719,-34.4428264],[-58.5408211,-34.4428884],[-58.5413215,-34.4439615],[-58.5425316,-34.4436284],[-58.5426307,-34.4437006],[-58.5426729,-34.4437325],[-58.5428657,-34.4438836],[-58.5431201,-34.444083],[-58.5433324,-34.4442569],[-58.5443816,-34.4450946],[-58.5449105,-34.4454862],[-58.545734,-34.4461275],[-58.5457876,-34.4461779],[-58.5461084,-34.4464796],[-58.5462419,-34.446609],[-58.5463176,-34.4466632],[-58.546345,-34.4466839],[-58.5469682,-34.447315],[-58.5477645,-34.4480155],[-58.5485139,-34.4486746],[-58.5492178,-34.4492938],[-58.5499133,-34.4499027],[-58.5506029,-34.4505249],[-58.5505787,-34.4505427],[-58.5498186,-34.4511085],[-58.5494781,-34.4513491],[-58.5489882,-34.4516829],[-58.5481531,-34.452265],[-58.5483928,-34.4525199],[-58.549003,-34.4528124],[-58.5497604,-34.4531754],[-58.5507034,-34.4536281],[-58.5516395,-34.4540761],[-58.5526847,-34.454577],[-58.5525482,-34.4547742],[-58.5532952,-34.455131],[-58.5540786,-34.4555069],[-58.5548472,-34.455879],[-58.5551734,-34.4560396],[-58.5556028,-34.456251],[-58.5563646,-34.4566233],[-58.5575395,-34.4571917],[-58.5577906,-34.4573131],[-58.5582387,-34.4575414],[-58.5584598,-34.4576468],[-58.5585782,-34.4577077],[-58.5591877,-34.4580074],[-58.5598333,-34.4583282],[-58.5600532,-34.4584374],[-58.5604215,-34.4586204],[-58.5611066,-34.4589491],[-58.5615262,-34.4591505],[-58.5623786,-34.4595596],[-58.5626098,-34.4596705],[-58.5630785,-34.4598984],[-58.5637894,-34.460244],[-58.5652373,-34.4609367],[-58.5653425,-34.4609876],[-58.5664048,-34.4614923],[-58.5668999,-34.4617419],[-58.5673862,-34.4619775],[-58.5684446,-34.4624902],[-58.5692425,-34.4628765],[-58.5695438,-34.4630224],[-58.57013,-34.4633063],[-58.571858,-34.4641368],[-58.5728461,-34.464614],[-58.5731591,-34.4647663],[-58.5739132,-34.4651334],[-58.5744431,-34.465399],[-58.5749574,-34.4656578],[-58.5753434,-34.4658464],[-58.5760668,-34.4662008],[-58.5771379,-34.4667238],[-58.5782308,-34.4672438],[-58.5793135,-34.4677642],[-58.5803978,-34.4682854],[-58.5814726,-34.468802],[-58.5825598,-34.4693246],[-58.5836373,-34.4698425],[-58.5847326,-34.4703689],[-58.5848651,-34.4704309],[-58.5853569,-34.4706609],[-58.5858219,-34.4708784],[-58.5868233,-34.4713652],[-58.5868875,-34.4713964],[-58.5879853,-34.4719198],[-58.5882501,-34.4720466],[-58.5890527,-34.4724311],[-58.5885262,-34.4731655],[-58.588007,-34.4738898],[-58.5874764,-34.4746301],[-58.5872505,-34.4749323],[-58.5869919,-34.475254],[-58.5869516,-34.4753047],[-58.5870261,-34.4753388],[-58.5870429,-34.4753447],[-58.5870798,-34.4753577],[-58.5871746,-34.4753771],[-58.5873548,-34.475388],[-58.5875779,-34.4753945],[-58.5885069,-34.4753721],[-58.5899342,-34.4753265],[-58.5900555,-34.4753165],[-58.5908255,-34.4752534],[-58.5909013,-34.4752514],[-58.5914516,-34.4752071],[-58.5926481,-34.4751589],[-58.5929954,-34.4751063],[-58.5931945,-34.4750911],[-58.5932632,-34.4750865],[-58.5942662,-34.4750363],[-58.5944173,-34.4750287],[-58.5950945,-34.4749671],[-58.5962595,-34.4748611],[-58.5963491,-34.4748541],[-58.596831,-34.4748107],[-58.5975244,-34.4747703],[-58.5976104,-34.4747653],[-58.5976719,-34.4747554],[-58.597722,-34.4747474],[-58.5977813,-34.4748792],[-58.5978097,-34.4750285],[-58.597842,-34.4752772],[-58.5978542,-34.4754113],[-58.5978855,-34.4757325],[-58.5979147,-34.475846],[-58.5979572,-34.4759335],[-58.5980017,-34.4759966],[-58.5986759,-34.47666],[-58.6006012,-34.4783065],[-58.6022048,-34.4797987],[-58.60223283070906,-34.479815307085275]]]]},"properties":{"id":"localidad-victoria","name":"Victoria","level":"locality","source":"OpenStreetMap","sourceUrl":"https://www.openstreetmap.org/relation/1788821","license":"ODbL 1.0","updatedAt":"2026-07-28","derivation":"intersection-with-official-municipality","originalGeometryPreservedAt":"src/data/san-fernando-boundaries.json","confidence":"verified-derived"}},{"type":"Feature","geometry":{"type":"MultiPolygon","coordinates":[[[[-58.603227772056606,-34.47894721000493],[-58.602543675938755,-34.479562896511],[-58.60223283070906,-34.479815307085275],[-58.6022048,-34.4797987],[-58.6006012,-34.4783065],[-58.5986759,-34.47666],[-58.5980017,-34.4759966],[-58.5979572,-34.4759335],[-58.5979147,-34.475846],[-58.5978855,-34.4757325],[-58.5978542,-34.4754113],[-58.597842,-34.4752772],[-58.5978097,-34.4750285],[-58.5977813,-34.4748792],[-58.597722,-34.4747474],[-58.5976719,-34.4747554],[-58.5976104,-34.4747653],[-58.5975244,-34.4747703],[-58.596831,-34.4748107],[-58.5963491,-34.4748541],[-58.5962595,-34.4748611],[-58.5950945,-34.4749671],[-58.5944173,-34.4750287],[-58.5942662,-34.4750363],[-58.5932632,-34.4750865],[-58.5931945,-34.4750911],[-58.5929954,-34.4751063],[-58.5926481,-34.4751589],[-58.5914516,-34.4752071],[-58.5909013,-34.4752514],[-58.5908255,-34.4752534],[-58.5900555,-34.4753165],[-58.5899342,-34.4753265],[-58.5885069,-34.4753721],[-58.5875779,-34.4753945],[-58.5873548,-34.475388],[-58.5871746,-34.4753771],[-58.5870798,-34.4753577],[-58.5870429,-34.4753447],[-58.5870261,-34.4753388],[-58.5869516,-34.4753047],[-58.5869919,-34.475254],[-58.5872505,-34.4749323],[-58.5874764,-34.4746301],[-58.588007,-34.4738898],[-58.5885262,-34.4731655],[-58.5890527,-34.4724311],[-58.5882501,-34.4720466],[-58.5879853,-34.4719198],[-58.5868875,-34.4713964],[-58.5868233,-34.4713652],[-58.5858219,-34.4708784],[-58.5853569,-34.4706609],[-58.5848651,-34.4704309],[-58.5847326,-34.4703689],[-58.5836373,-34.4698425],[-58.5825598,-34.4693246],[-58.5814726,-34.468802],[-58.5803978,-34.4682854],[-58.5793135,-34.4677642],[-58.5782308,-34.4672438],[-58.5771379,-34.4667238],[-58.5760668,-34.4662008],[-58.5753434,-34.4658464],[-58.5749574,-34.4656578],[-58.5744431,-34.465399],[-58.5739132,-34.4651334],[-58.5731591,-34.4647663],[-58.5728461,-34.464614],[-58.571858,-34.4641368],[-58.57013,-34.4633063],[-58.5695438,-34.4630224],[-58.5692425,-34.4628765],[-58.5684446,-34.4624902],[-58.5673862,-34.4619775],[-58.5668999,-34.4617419],[-58.5664048,-34.4614923],[-58.5653425,-34.4609876],[-58.5652373,-34.4609367],[-58.5637894,-34.460244],[-58.5630785,-34.4598984],[-58.5626098,-34.4596705],[-58.5623786,-34.4595596],[-58.5615262,-34.4591505],[-58.5611066,-34.4589491],[-58.5604215,-34.4586204],[-58.5600532,-34.4584374],[-58.5598333,-34.4583282],[-58.5591877,-34.4580074],[-58.5585782,-34.4577077],[-58.5584598,-34.4576468],[-58.5582387,-34.4575414],[-58.5577906,-34.4573131],[-58.5575395,-34.4571917],[-58.5563646,-34.4566233],[-58.5556028,-34.456251],[-58.5551734,-34.4560396],[-58.5548472,-34.455879],[-58.5540786,-34.4555069],[-58.5532952,-34.455131],[-58.5525482,-34.4547742],[-58.5526847,-34.454577],[-58.5516395,-34.4540761],[-58.5507034,-34.4536281],[-58.5497604,-34.4531754],[-58.549003,-34.4528124],[-58.5483928,-34.4525199],[-58.5481531,-34.452265],[-58.5489882,-34.4516829],[-58.5494781,-34.4513491],[-58.5498186,-34.4511085],[-58.5505787,-34.4505427],[-58.5506029,-34.4505249],[-58.551293,-34.4500152],[-58.5514983,-34.4498635],[-58.5519762,-34.4495106],[-58.5532207,-34.4485768],[-58.5534568,-34.4487854],[-58.5534925,-34.4488177],[-58.5541315,-34.4493808],[-58.5547548,-34.4499359],[-58.5556225,-34.4504107],[-58.556382,-34.4508227],[-58.5564551,-34.4508633],[-58.5565372,-34.4509059],[-58.556639,-34.4509576],[-58.5572304,-34.4512591],[-58.5579884,-34.4516398],[-58.5585193,-34.4519066],[-58.5587236,-34.4520178],[-58.5586641,-34.4521145],[-58.5597173,-34.4526146],[-58.5607001,-34.4530813],[-58.561268,-34.453351],[-58.5615803,-34.4534993],[-58.561898,-34.4536501],[-58.5620719,-34.4537327],[-58.5624527,-34.4539136],[-58.5633657,-34.4543422],[-58.5643345,-34.4547953],[-58.5651735,-34.4552227],[-58.5655643,-34.4554198],[-58.5667302,-34.4559638],[-58.5682098,-34.4566564],[-58.5693996,-34.4572192],[-58.570356,-34.4576834],[-58.5714354,-34.4581838],[-58.5716046,-34.4582752],[-58.5721699,-34.4585468],[-58.5734721,-34.4591329],[-58.5747556,-34.4597489],[-58.5758214,-34.4602767],[-58.5769131,-34.4607946],[-58.5780083,-34.4613142],[-58.5790697,-34.4618177],[-58.5801697,-34.4623396],[-58.5812644,-34.4628589],[-58.582357,-34.4633772],[-58.5834249,-34.4638866],[-58.5838615,-34.4640941],[-58.5845239,-34.4644089],[-58.5846239,-34.4644564],[-58.5855904,-34.4649155],[-58.5857201,-34.4649779],[-58.5867111,-34.4654548],[-58.5867716,-34.4654834],[-58.5877706,-34.4659559],[-58.587855,-34.4659964],[-58.588761,-34.4664307],[-58.5888616,-34.4664789],[-58.5898747,-34.4669543],[-58.5899537,-34.4669914],[-58.5900587,-34.4670416],[-58.5910366,-34.4675089],[-58.5921099,-34.4680196],[-58.5932174,-34.4685493],[-58.5942964,-34.4690689],[-58.5953774,-34.4695786],[-58.5958882,-34.4698175],[-58.596206,-34.4699661],[-58.596507,-34.470102],[-58.5966591,-34.4701801],[-58.59851678586749,-34.47092170284303],[-58.59849157809604,-34.47096206045313],[-58.59824608934959,-34.47132874624577],[-58.5982892624566,-34.47144349257913],[-58.59841280639502,-34.47177235284234],[-58.59875273025472,-34.47209667055123],[-58.59894844461504,-34.47228339952339],[-58.59964384997398,-34.47300371207348],[-58.60027696121477,-34.47365956920196],[-58.600339178222406,-34.47372402148987],[-58.6008405688272,-34.47433384214806],[-58.601071903734415,-34.47482329991191],[-58.60115959032707,-34.475183236844444],[-58.60123486801722,-34.47549223757146],[-58.60135280564696,-34.47560185208639],[-58.60151301223469,-34.4757839957525],[-58.601748808220655,-34.476003130274734],[-58.60192732055662,-34.4763928040049],[-58.60205542892708,-34.477196526592735],[-58.60214067375702,-34.477963733644046],[-58.60243654023374,-34.478499037658295],[-58.60264133186916,-34.47861864458144],[-58.60288933064141,-34.47875680878262],[-58.603227772056606,-34.47894721000493]]]]},"properties":{"id":"localidad-virreyes","name":"Virreyes","level":"locality","source":"OpenStreetMap","sourceUrl":"https://www.openstreetmap.org/relation/1788822","license":"ODbL 1.0","updatedAt":"2026-07-28","derivation":"intersection-with-official-municipality","originalGeometryPreservedAt":"src/data/san-fernando-boundaries.json","confidence":"verified-derived"}},{"type":"Feature","geometry":{"type":"MultiPolygon","coordinates":[[[[-58.60007133340168,-34.46954736383371],[-58.599938796177064,-34.469663043371405],[-58.599198921156365,-34.47031232123893],[-58.598547501172085,-34.470872527679354],[-58.59851678586749,-34.47092170284303],[-58.5966591,-34.4701801],[-58.596507,-34.470102],[-58.596206,-34.4699661],[-58.5958882,-34.4698175],[-58.5953774,-34.4695786],[-58.5942964,-34.4690689],[-58.5932174,-34.4685493],[-58.5921099,-34.4680196],[-58.5910366,-34.4675089],[-58.5900587,-34.4670416],[-58.5899537,-34.4669914],[-58.5898747,-34.4669543],[-58.5888616,-34.4664789],[-58.588761,-34.4664307],[-58.587855,-34.4659964],[-58.5877706,-34.4659559],[-58.5867716,-34.4654834],[-58.5867111,-34.4654548],[-58.5857201,-34.4649779],[-58.5855904,-34.4649155],[-58.5846239,-34.4644564],[-58.5845239,-34.4644089],[-58.5838615,-34.4640941],[-58.5834249,-34.4638866],[-58.582357,-34.4633772],[-58.5812644,-34.4628589],[-58.5801697,-34.4623396],[-58.5790697,-34.4618177],[-58.5780083,-34.4613142],[-58.5769131,-34.4607946],[-58.5758214,-34.4602767],[-58.5747556,-34.4597489],[-58.5734721,-34.4591329],[-58.5721699,-34.4585468],[-58.5716046,-34.4582752],[-58.5714354,-34.4581838],[-58.570356,-34.4576834],[-58.5693996,-34.4572192],[-58.5682098,-34.4566564],[-58.5667302,-34.4559638],[-58.5655643,-34.4554198],[-58.5651735,-34.4552227],[-58.5643345,-34.4547953],[-58.5633657,-34.4543422],[-58.5624527,-34.4539136],[-58.5620719,-34.4537327],[-58.561898,-34.4536501],[-58.5615803,-34.4534993],[-58.561268,-34.453351],[-58.5607001,-34.4530813],[-58.5597173,-34.4526146],[-58.5586641,-34.4521145],[-58.5587236,-34.4520178],[-58.5585193,-34.4519066],[-58.5579884,-34.4516398],[-58.5572304,-34.4512591],[-58.556639,-34.4509576],[-58.5565372,-34.4509059],[-58.5564551,-34.4508633],[-58.556382,-34.4508227],[-58.5556225,-34.4504107],[-58.5547548,-34.4499359],[-58.5541315,-34.4493808],[-58.5534925,-34.4488177],[-58.5534568,-34.4487854],[-58.5532207,-34.4485768],[-58.5519762,-34.4495106],[-58.5514983,-34.4498635],[-58.551293,-34.4500152],[-58.5506029,-34.4505249],[-58.5499133,-34.4499027],[-58.5492178,-34.4492938],[-58.5485139,-34.4486746],[-58.5477645,-34.4480155],[-58.5469682,-34.447315],[-58.546345,-34.4466839],[-58.5463176,-34.4466632],[-58.5462419,-34.446609],[-58.5461084,-34.4464796],[-58.5457876,-34.4461779],[-58.545734,-34.4461275],[-58.5449105,-34.4454862],[-58.5443816,-34.4450946],[-58.5433324,-34.4442569],[-58.5431201,-34.444083],[-58.5428657,-34.4438836],[-58.5426729,-34.4437325],[-58.5426307,-34.4437006],[-58.5425316,-34.4436284],[-58.5413215,-34.4439615],[-58.5408211,-34.4428884],[-58.5407719,-34.4428264],[-58.5407016,-34.4427665],[-58.5404561,-34.4425736],[-58.5390171,-34.4414804],[-58.5387222,-34.4412564],[-58.5378389,-34.4405784],[-58.5377196,-34.4404738],[-58.5376135,-34.4403794],[-58.5375334,-34.4402945],[-58.5373198,-34.4400679],[-58.5370865,-34.4398302],[-58.5369614,-34.4397314],[-58.5368904,-34.4396875],[-58.5368396,-34.4396561],[-58.5367826,-34.4396567],[-58.5354617,-34.4383142],[-58.53548555756494,-34.43828739212561],[-58.535614401397794,-34.43815212329745],[-58.536299342670645,-34.43755624750313],[-58.53659858760656,-34.43724429452573],[-58.53782186087326,-34.435726351301625],[-58.538242854242014,-34.43523707418774],[-58.53851336481713,-34.43492268768361],[-58.538965690117635,-34.43439680761363],[-58.53986425776025,-34.433406877237495],[-58.540141031916804,-34.43313076113447],[-58.54036220334528,-34.43292603312393],[-58.54093549505997,-34.432491145115385],[-58.54190390220252,-34.43186252356579],[-58.54251910177685,-34.43151819867966],[-58.54340674828549,-34.431150081939926],[-58.54528551722764,-34.43071249649502],[-58.54740561457207,-34.430160490962535],[-58.54779594389537,-34.430018369439296],[-58.5491985,-34.4297243],[-58.5513466,-34.4285241],[-58.55407273244094,-34.42685399729482],[-58.55592052476161,-34.42593403413087],[-58.55801278367476,-34.424462319324796],[-58.55807847548997,-34.42443604177555],[-58.55837463906192,-34.42431404344872],[-58.5588306,-34.4264897],[-58.5591505,-34.4277912],[-58.5593566,-34.4282602],[-58.5600674,-34.4296086],[-58.5603375,-34.4299369],[-58.5617874,-34.4312208],[-58.563705958347896,-34.43263045597403],[-58.5638787086309,-34.432766194129094],[-58.56407736211888,-34.432903343970956],[-58.5665817,-34.4347434],[-58.568676417931826,-34.43634504051327],[-58.568640458976105,-34.43650303639352],[-58.571047078495326,-34.438270914231055],[-58.57151997119819,-34.4386099701649],[-58.57237949002815,-34.43924199550872],[-58.57263467912679,-34.4394281168193],[-58.5726471,-34.4394437],[-58.5727561,-34.4395342],[-58.57391438588525,-34.440361466638336],[-58.57423849422036,-34.44059785396217],[-58.576516662076564,-34.44225605395369],[-58.57690348676431,-34.44254004943202],[-58.57755893577545,-34.44302547960054],[-58.57942891650407,-34.44438149120815],[-58.57950412350832,-34.44443643278782],[-58.58041307963158,-34.445025196412416],[-58.582317923727686,-34.445504479765624],[-58.58355914471934,-34.44578713405085],[-58.5846774725435,-34.44600834175234],[-58.58545686390845,-34.44619207659883],[-58.587909562848495,-34.446770279390776],[-58.59351086455921,-34.44794828511138],[-58.5945651,-34.448189],[-58.5947406,-34.4482116],[-58.594822839392954,-34.44820968069309],[-58.594929832553625,-34.448230551567384],[-58.595408995890764,-34.448324020698614],[-58.59539700479213,-34.44835214728482],[-58.59514808663923,-34.4483610008068],[-58.59497724734301,-34.448818648985096],[-58.5949659095269,-34.448845554103244],[-58.59483244033428,-34.44901529767415],[-58.59478579593931,-34.449204016791],[-58.59477402708269,-34.44925795479115],[-58.594692840760395,-34.449554506016725],[-58.594681681411934,-34.449572342347054],[-58.59423852434856,-34.4500448859242],[-58.594160026668064,-34.45018814575905],[-58.59403357391262,-34.450592322090365],[-58.59397367877399,-34.45091615583098],[-58.5938777914143,-34.45144680015247],[-58.593817895660436,-34.451770633773606],[-58.59368721129842,-34.45242707381205],[-58.59366306221319,-34.45257105112021],[-58.593799314768994,-34.452879105875496],[-58.593872464161485,-34.45306023016608],[-58.59388302227232,-34.453078406157935],[-58.59424321600013,-34.45365951674175],[-58.59427506943975,-34.45370497605368],[-58.594285546096295,-34.453732136878486],[-58.59435912833355,-34.45388622863747],[-58.59450431096316,-34.45431151797498],[-58.59459832032203,-34.454547048582164],[-58.59463000373982,-34.45460148736829],[-58.59470332746483,-34.45477363302185],[-58.594787299619405,-34.45495488060199],[-58.59487162125323,-34.45511808011231],[-58.594881830817876,-34.45515430435518],[-58.59486946069409,-34.45524425467177],[-58.59484514309658,-34.4553972117473],[-58.5948433316282,-34.45550533816149],[-58.5948409110762,-34.45564956632796],[-58.594851388245004,-34.45567672725226],[-58.59487190453833,-34.455749091812415],[-58.594954838747405,-34.45599347444994],[-58.59497570426436,-34.45604779089063],[-58.59498601100436,-34.4560839312101],[-58.59509205319097,-34.456247470982746],[-58.59511334936561,-34.45627475446709],[-58.59515646124763,-34.456302293897885],[-58.59528518858768,-34.45641193432947],[-58.59539106131545,-34.456584453685664],[-58.5953973089861,-34.45686396968048],[-58.59538338094312,-34.45704408250669],[-58.59524844121929,-34.457303902763016],[-58.595237273345134,-34.45732182839144],[-58.59519166785167,-34.457447412636554],[-58.59515799364142,-34.457510168886124],[-58.59509039350827,-34.45764456588237],[-58.59504555915146,-34.457725158307255],[-58.59500055421259,-34.457814730097546],[-58.59493312418144,-34.45794014763514],[-58.59491061765605,-34.45798497821952],[-58.59494006163649,-34.458174576898365],[-58.594939371258,-34.45821966351457],[-58.594948899015954,-34.45830088508451],[-58.59495670593171,-34.45835107641311],[-58.594958678793425,-34.458364142452794],[-58.59496837711141,-34.458436384653034],[-58.594986913403496,-34.45862585539077],[-58.59498665349361,-34.458643909013894],[-58.59498527325871,-34.45872500258357],[-58.594983633130404,-34.458824149779566],[-58.59498225291987,-34.45890524335397],[-58.59497975204354,-34.45905845657286],[-58.59497880224942,-34.45911251714405],[-58.5949782013752,-34.4591485295368],[-58.594987981379504,-34.45921178694913],[-58.59483131070451,-34.459471355877554],[-58.59469671569909,-34.459713127139466],[-58.594695684307226,-34.45977617251576],[-58.594691624416,-34.46001954803149],[-58.59468989516876,-34.46011868976165],[-58.59468921276146,-34.460163686972066],[-58.59484936465823,-34.460345910970474],[-58.594892129833866,-34.46039149900962],[-58.59491360561315,-34.46040971392695],[-58.59492150662401,-34.46041779101917],[-58.59496710875943,-34.46046440944048],[-58.59497766826122,-34.46048258570247],[-58.595538858333384,-34.460926592725734],[-58.59572936564914,-34.461077319886414],[-58.595884333684964,-34.4611540518087],[-58.59593445324129,-34.461178868345094],[-58.59627728123101,-34.46149839823552],[-58.596363244136846,-34.46156254172584],[-58.59647995771233,-34.461884046301286],[-58.59648810601313,-34.4619064919849],[-58.596644649433685,-34.46230497162011],[-58.59678454870903,-34.46239677816587],[-58.59694592501173,-34.46250679987135],[-58.59708651370017,-34.46256259937754],[-58.59746466214979,-34.46272022701124],[-58.59789519274468,-34.463004760691746],[-58.59791683992851,-34.463013996403404],[-58.598349089856235,-34.463190397618014],[-58.59838147572511,-34.46320874094282],[-58.598576083570016,-34.46328321893031],[-58.59866291587538,-34.46329320712408],[-58.59868430421533,-34.463320496665894],[-58.59869486489455,-34.46333867315655],[-58.59892881056347,-34.46366592654816],[-58.598943142469714,-34.464107757233485],[-58.59893059907999,-34.46420677734812],[-58.59893034018267,-34.4642248311679],[-58.59888511077011,-34.46693745807215],[-58.598948931324955,-34.46702829597711],[-58.59905456874091,-34.46721887373364],[-58.59940576413855,-34.4676917489734],[-58.59950977823653,-34.467981386236794],[-58.59960305375328,-34.46826191590721],[-58.5996667792551,-34.468352838147744],[-58.59970930070574,-34.46841639199942],[-58.59982508319224,-34.468652091171755],[-58.599909253861654,-34.468824364811326],[-58.599972123517695,-34.46896935402681],[-58.600012495756864,-34.46915908464178],[-58.60005466248701,-34.469240776499234],[-58.600053636118346,-34.469303822851096],[-58.60007133340168,-34.46954736383371]]]]},"properties":{"id":"localidad-san-fernando","name":"San Fernando","level":"locality","source":"OpenStreetMap","sourceUrl":"https://www.openstreetmap.org/relation/1898365","license":"ODbL 1.0","updatedAt":"2026-07-28","derivation":"intersection-with-official-municipality","originalGeometryPreservedAt":"src/data/san-fernando-boundaries.json","confidence":"verified-derived"}},{"type":"Feature","geometry":{"type":"MultiPolygon","coordinates":[[[[-58.5766494,-34.4465128],[-58.5764795,-34.4467988],[-58.5761963,-34.4472775],[-58.5757693,-34.4480321],[-58.5755982,-34.4483165],[-58.5753912,-34.4482207],[-58.5749888,-34.4480345],[-58.5747501,-34.4479241],[-58.5746462,-34.4478808],[-58.5743724,-34.4477667],[-58.5738499,-34.4475489],[-58.5737833,-34.4474128],[-58.5737651,-34.4473902],[-58.5737058,-34.4473168],[-58.5736325,-34.4472261],[-58.5736007,-34.4471888],[-58.5735773,-34.4471578],[-58.5734176,-34.4469918],[-58.5733459,-34.4469173],[-58.5732291,-34.4468131],[-58.5739771,-34.4462111],[-58.5748004,-34.4455707],[-58.5750519,-34.4453741],[-58.5758566,-34.4459699],[-58.5763253,-34.4462909],[-58.5766494,-34.4465128]]]]},"properties":{"id":"barrio-infico","name":"Barrio Infico","level":"neighborhood","source":"OpenStreetMap","sourceUrl":"https://www.openstreetmap.org/relation/3664246","license":"ODbL 1.0","updatedAt":"2026-07-28","parentLocality":"San Fernando","derivation":"intersection-with-parent-and-municipality","originalGeometryPreservedAt":"src/data/san-fernando-boundaries.json","confidence":"verified-derived"}}]}
